{"type": "FeatureCollection", "features": [{"type": "Feature", "id": "kd:00000000", "geometry": {"type": "Polygon", "coordinates": [[[49.597304, 40.300253000000005], [49.777579, 40.300253000000005], [49.777579, 40.4087245], [49.597304, 40.4087245], [49.597304, 40.300253000000005]]]}, "properties": {"h3": "kd:00000000"}}, {"type": "Feature", "id": "kd:00000001", "geometry": {"type": "Polygon", "coordinates": [[[49.777579, 40.300253000000005], [49.7842245, 40.300253000000005], [49.7842245, 40.4087245], [49.777579, 40.4087245], [49.777579, 40.300253000000005]]]}, "properties": {"h3": "kd:00000001"}}, {"type": "Feature", "id": "kd:00000010", "geometry": {"type": "Polygon", "coordinates": [[[49.7842245, 40.300253000000005], [49.7909295, 40.300253000000005], [49.7909295, 40.389635], [49.7842245, 40.389635], [49.7842245, 40.300253000000005]]]}, "properties": {"h3": "kd:00000010"}}, {"type": "Feature", "id": "kd:00000011", "geometry": {"type": "Polygon", "coordinates": [[[49.7842245, 40.389635], [49.7909295, 40.389635], [49.7909295, 40.4087245], [49.7842245, 40.4087245], [49.7842245, 40.389635]]]}, "properties": {"h3": "kd:00000011"}}, {"type": "Feature", "id": "kd:00000100", "geometry": {"type": "Polygon", "coordinates": [[[49.7909295, 40.300253000000005], [49.798079, 40.300253000000005], [49.798079, 40.376442], [49.7909295, 40.376442], [49.7909295, 40.300253000000005]]]}, "properties": {"h3": "kd:00000100"}}, {"type": "Feature", "id": "kd:00000101", "geometry": {"type": "Polygon", "coordinates": [[[49.7909295, 40.376442], [49.798079, 40.376442], [49.798079, 40.391964], [49.7909295, 40.391964], [49.7909295, 40.376442]]]}, "properties": {"h3": "kd:00000101"}}, {"type": "Feature", "id": "kd:00000110", "geometry": {"type": "Polygon", "coordinates": [[[49.7909295, 40.391964], [49.798079, 40.391964], [49.798079, 40.399756], [49.7909295, 40.399756], [49.7909295, 40.391964]]]}, "properties": {"h3": "kd:00000110"}}, {"type": "Feature", "id": "kd:00000111", "geometry": {"type": "Polygon", "coordinates": [[[49.7909295, 40.399756], [49.798079, 40.399756], [49.798079, 40.4087245], [49.7909295, 40.4087245], [49.7909295, 40.399756]]]}, "properties": {"h3": "kd:00000111"}}, {"type": "Feature", "id": "kd:00001000", "geometry": {"type": "Polygon", "coordinates": [[[49.798079, 40.300253000000005], [49.807255999999995, 40.300253000000005], [49.807255999999995, 40.364562], [49.798079, 40.364562], [49.798079, 40.300253000000005]]]}, "properties": {"h3": "kd:00001000"}}, {"type": "Feature", "id": "kd:00001001", "geometry": {"type": "Polygon", "coordinates": [[[49.798079, 40.364562], [49.807255999999995, 40.364562], [49.807255999999995, 40.375969], [49.798079, 40.375969], [49.798079, 40.364562]]]}, "properties": {"h3": "kd:00001001"}}, {"type": "Feature", "id": "kd:00001010", "geometry": {"type": "Polygon", "coordinates": [[[49.798079, 40.375969], [49.807255999999995, 40.375969], [49.807255999999995, 40.384887], [49.798079, 40.384887], [49.798079, 40.375969]]]}, "properties": {"h3": "kd:00001010"}}, {"type": "Feature", "id": "kd:00001011", "geometry": {"type": "Polygon", "coordinates": [[[49.798079, 40.384887], [49.807255999999995, 40.384887], [49.807255999999995, 40.390937], [49.798079, 40.390937], [49.798079, 40.384887]]]}, "properties": {"h3": "kd:00001011"}}, {"type": "Feature", "id": "kd:00001100", "geometry": {"type": "Polygon", "coordinates": [[[49.798079, 40.390937], [49.807255999999995, 40.390937], [49.807255999999995, 40.395799], [49.798079, 40.395799], [49.798079, 40.390937]]]}, "properties": {"h3": "kd:00001100"}}, {"type": "Feature", "id": "kd:00001101", "geometry": {"type": "Polygon", "coordinates": [[[49.798079, 40.395799], [49.807255999999995, 40.395799], [49.807255999999995, 40.400366500000004], [49.798079, 40.400366500000004], [49.798079, 40.395799]]]}, "properties": {"h3": "kd:00001101"}}, {"type": "Feature", "id": "kd:00001110", "geometry": {"type": "Polygon", "coordinates": [[[49.798079, 40.400366500000004], [49.807255999999995, 40.400366500000004], [49.807255999999995, 40.404704], [49.798079, 40.404704], [49.798079, 40.400366500000004]]]}, "properties": {"h3": "kd:00001110"}}, {"type": "Feature", "id": "kd:00001111", "geometry": {"type": "Polygon", "coordinates": [[[49.798079, 40.404704], [49.807255999999995, 40.404704], [49.807255999999995, 40.4087245], [49.798079, 40.4087245], [49.798079, 40.404704]]]}, "properties": {"h3": "kd:00001111"}}, {"type": "Feature", "id": "kd:00010000", "geometry": {"type": "Polygon", "coordinates": [[[49.807255999999995, 40.300253000000005], [49.820282, 40.300253000000005], [49.820282, 40.35182], [49.807255999999995, 40.35182], [49.807255999999995, 40.300253000000005]]]}, "properties": {"h3": "kd:00010000"}}, {"type": "Feature", "id": "kd:00010001", "geometry": {"type": "Polygon", "coordinates": [[[49.807255999999995, 40.35182], [49.820282, 40.35182], [49.820282, 40.359874000000005], [49.807255999999995, 40.359874000000005], [49.807255999999995, 40.35182]]]}, "properties": {"h3": "kd:00010001"}}, {"type": "Feature", "id": "kd:00010010", "geometry": {"type": "Polygon", "coordinates": [[[49.807255999999995, 40.359874000000005], [49.820282, 40.359874000000005], [49.820282, 40.366459], [49.807255999999995, 40.366459], [49.807255999999995, 40.359874000000005]]]}, "properties": {"h3": "kd:00010010"}}, {"type": "Feature", "id": "kd:00010011", "geometry": {"type": "Polygon", "coordinates": [[[49.807255999999995, 40.366459], [49.820282, 40.366459], [49.820282, 40.371136], [49.807255999999995, 40.371136], [49.807255999999995, 40.366459]]]}, "properties": {"h3": "kd:00010011"}}, {"type": "Feature", "id": "kd:00010100", "geometry": {"type": "Polygon", "coordinates": [[[49.807255999999995, 40.371136], [49.81415, 40.371136], [49.81415, 40.3797555], [49.807255999999995, 40.3797555], [49.807255999999995, 40.371136]]]}, "properties": {"h3": "kd:00010100"}}, {"type": "Feature", "id": "kd:00010101", "geometry": {"type": "Polygon", "coordinates": [[[49.81415, 40.371136], [49.820282, 40.371136], [49.820282, 40.3797555], [49.81415, 40.3797555], [49.81415, 40.371136]]]}, "properties": {"h3": "kd:00010101"}}, {"type": "Feature", "id": "kd:00010110", "geometry": {"type": "Polygon", "coordinates": [[[49.807255999999995, 40.3797555], [49.814555, 40.3797555], [49.814555, 40.386348], [49.807255999999995, 40.386348], [49.807255999999995, 40.3797555]]]}, "properties": {"h3": "kd:00010110"}}, {"type": "Feature", "id": "kd:00010111", "geometry": {"type": "Polygon", "coordinates": [[[49.814555, 40.3797555], [49.820282, 40.3797555], [49.820282, 40.386348], [49.814555, 40.386348], [49.814555, 40.3797555]]]}, "properties": {"h3": "kd:00010111"}}, {"type": "Feature", "id": "kd:00011000", "geometry": {"type": "Polygon", "coordinates": [[[49.807255999999995, 40.386348], [49.813639, 40.386348], [49.813639, 40.392337], [49.807255999999995, 40.392337], [49.807255999999995, 40.386348]]]}, "properties": {"h3": "kd:00011000"}}, {"type": "Feature", "id": "kd:00011001", "geometry": {"type": "Polygon", "coordinates": [[[49.813639, 40.386348], [49.820282, 40.386348], [49.820282, 40.392337], [49.813639, 40.392337], [49.813639, 40.386348]]]}, "properties": {"h3": "kd:00011001"}}, {"type": "Feature", "id": "kd:00011010", "geometry": {"type": "Polygon", "coordinates": [[[49.807255999999995, 40.392337], [49.81416, 40.392337], [49.81416, 40.3973625], [49.807255999999995, 40.3973625], [49.807255999999995, 40.392337]]]}, "properties": {"h3": "kd:00011010"}}, {"type": "Feature", "id": "kd:00011011", "geometry": {"type": "Polygon", "coordinates": [[[49.81416, 40.392337], [49.820282, 40.392337], [49.820282, 40.3973625], [49.81416, 40.3973625], [49.81416, 40.392337]]]}, "properties": {"h3": "kd:00011011"}}, {"type": "Feature", "id": "kd:00011100", "geometry": {"type": "Polygon", "coordinates": [[[49.807255999999995, 40.3973625], [49.813792, 40.3973625], [49.813792, 40.4030925], [49.807255999999995, 40.4030925], [49.807255999999995, 40.3973625]]]}, "properties": {"h3": "kd:00011100"}}, {"type": "Feature", "id": "kd:00011101", "geometry": {"type": "Polygon", "coordinates": [[[49.813792, 40.3973625], [49.820282, 40.3973625], [49.820282, 40.4030925], [49.813792, 40.4030925], [49.813792, 40.3973625]]]}, "properties": {"h3": "kd:00011101"}}, {"type": "Feature", "id": "kd:00011110", "geometry": {"type": "Polygon", "coordinates": [[[49.807255999999995, 40.4030925], [49.813758, 40.4030925], [49.813758, 40.4087245], [49.807255999999995, 40.4087245], [49.807255999999995, 40.4030925]]]}, "properties": {"h3": "kd:00011110"}}, {"type": "Feature", "id": "kd:00011111", "geometry": {"type": "Polygon", "coordinates": [[[49.813758, 40.4030925], [49.820282, 40.4030925], [49.820282, 40.4087245], [49.813758, 40.4087245], [49.813758, 40.4030925]]]}, "properties": {"h3": "kd:00011111"}}, {"type": "Feature", "id": "kd:00100000", "geometry": {"type": "Polygon", "coordinates": [[[49.820282, 40.300253000000005], [49.840703, 40.300253000000005], [49.840703, 40.340519], [49.820282, 40.340519], [49.820282, 40.300253000000005]]]}, "properties": {"h3": "kd:00100000"}}, {"type": "Feature", "id": "kd:00100001", "geometry": {"type": "Polygon", "coordinates": [[[49.820282, 40.340519], [49.840703, 40.340519], [49.840703, 40.3476505], [49.820282, 40.3476505], [49.820282, 40.340519]]]}, "properties": {"h3": "kd:00100001"}}, {"type": "Feature", "id": "kd:00100010", "geometry": {"type": "Polygon", "coordinates": [[[49.820282, 40.3476505], [49.830421, 40.3476505], [49.830421, 40.3564235], [49.820282, 40.3564235], [49.820282, 40.3476505]]]}, "properties": {"h3": "kd:00100010"}}, {"type": "Feature", "id": "kd:00100011", "geometry": {"type": "Polygon", "coordinates": [[[49.830421, 40.3476505], [49.840703, 40.3476505], [49.840703, 40.3564235], [49.830421, 40.3564235], [49.830421, 40.3476505]]]}, "properties": {"h3": "kd:00100011"}}, {"type": "Feature", "id": "kd:00100100", "geometry": {"type": "Polygon", "coordinates": [[[49.820282, 40.3564235], [49.8314345, 40.3564235], [49.8314345, 40.362253], [49.820282, 40.362253], [49.820282, 40.3564235]]]}, "properties": {"h3": "kd:00100100"}}, {"type": "Feature", "id": "kd:00100101", "geometry": {"type": "Polygon", "coordinates": [[[49.820282, 40.362253], [49.8314345, 40.362253], [49.8314345, 40.3663615], [49.820282, 40.3663615], [49.820282, 40.362253]]]}, "properties": {"h3": "kd:00100101"}}, {"type": "Feature", "id": "kd:00100110", "geometry": {"type": "Polygon", "coordinates": [[[49.8314345, 40.3564235], [49.840703, 40.3564235], [49.840703, 40.362415], [49.8314345, 40.362415], [49.8314345, 40.3564235]]]}, "properties": {"h3": "kd:00100110"}}, {"type": "Feature", "id": "kd:00100111", "geometry": {"type": "Polygon", "coordinates": [[[49.8314345, 40.362415], [49.840703, 40.362415], [49.840703, 40.3663615], [49.8314345, 40.3663615], [49.8314345, 40.362415]]]}, "properties": {"h3": "kd:00100111"}}, {"type": "Feature", "id": "kd:00101000", "geometry": {"type": "Polygon", "coordinates": [[[49.820282, 40.3663615], [49.826015, 40.3663615], [49.826015, 40.374046], [49.820282, 40.374046], [49.820282, 40.3663615]]]}, "properties": {"h3": "kd:00101000"}}, {"type": "Feature", "id": "kd:00101001", "geometry": {"type": "Polygon", "coordinates": [[[49.826015, 40.3663615], [49.8316115, 40.3663615], [49.8316115, 40.374046], [49.826015, 40.374046], [49.826015, 40.3663615]]]}, "properties": {"h3": "kd:00101001"}}, {"type": "Feature", "id": "kd:00101010", "geometry": {"type": "Polygon", "coordinates": [[[49.820282, 40.374046], [49.826464, 40.374046], [49.826464, 40.380187], [49.820282, 40.380187], [49.820282, 40.374046]]]}, "properties": {"h3": "kd:00101010"}}, {"type": "Feature", "id": "kd:00101011", "geometry": {"type": "Polygon", "coordinates": [[[49.826464, 40.374046], [49.8316115, 40.374046], [49.8316115, 40.380187], [49.826464, 40.380187], [49.826464, 40.374046]]]}, "properties": {"h3": "kd:00101011"}}, {"type": "Feature", "id": "kd:00101100", "geometry": {"type": "Polygon", "coordinates": [[[49.8316115, 40.3663615], [49.840703, 40.3663615], [49.840703, 40.37037], [49.8316115, 40.37037], [49.8316115, 40.3663615]]]}, "properties": {"h3": "kd:00101100"}}, {"type": "Feature", "id": "kd:00101101", "geometry": {"type": "Polygon", "coordinates": [[[49.8316115, 40.37037], [49.840703, 40.37037], [49.840703, 40.373621], [49.8316115, 40.373621], [49.8316115, 40.37037]]]}, "properties": {"h3": "kd:00101101"}}, {"type": "Feature", "id": "kd:00101110", "geometry": {"type": "Polygon", "coordinates": [[[49.8316115, 40.373621], [49.836007, 40.373621], [49.836007, 40.380187], [49.8316115, 40.380187], [49.8316115, 40.373621]]]}, "properties": {"h3": "kd:00101110"}}, {"type": "Feature", "id": "kd:00101111", "geometry": {"type": "Polygon", "coordinates": [[[49.836007, 40.373621], [49.840703, 40.373621], [49.840703, 40.380187], [49.836007, 40.380187], [49.836007, 40.373621]]]}, "properties": {"h3": "kd:00101111"}}, {"type": "Feature", "id": "kd:00110000", "geometry": {"type": "Polygon", "coordinates": [[[49.820282, 40.380187], [49.825403, 40.380187], [49.825403, 40.3865055], [49.820282, 40.3865055], [49.820282, 40.380187]]]}, "properties": {"h3": "kd:00110000"}}, {"type": "Feature", "id": "kd:00110001", "geometry": {"type": "Polygon", "coordinates": [[[49.825403, 40.380187], [49.830895, 40.380187], [49.830895, 40.3865055], [49.825403, 40.3865055], [49.825403, 40.380187]]]}, "properties": {"h3": "kd:00110001"}}, {"type": "Feature", "id": "kd:00110010", "geometry": {"type": "Polygon", "coordinates": [[[49.820282, 40.3865055], [49.826135, 40.3865055], [49.826135, 40.39303], [49.820282, 40.39303], [49.820282, 40.3865055]]]}, "properties": {"h3": "kd:00110010"}}, {"type": "Feature", "id": "kd:00110011", "geometry": {"type": "Polygon", "coordinates": [[[49.826135, 40.3865055], [49.830895, 40.3865055], [49.830895, 40.39303], [49.826135, 40.39303], [49.826135, 40.3865055]]]}, "properties": {"h3": "kd:00110011"}}, {"type": "Feature", "id": "kd:00110100", "geometry": {"type": "Polygon", "coordinates": [[[49.830895, 40.380187], [49.836378, 40.380187], [49.836378, 40.386956999999995], [49.830895, 40.386956999999995], [49.830895, 40.380187]]]}, "properties": {"h3": "kd:00110100"}}, {"type": "Feature", "id": "kd:00110101", "geometry": {"type": "Polygon", "coordinates": [[[49.836378, 40.380187], [49.840703, 40.380187], [49.840703, 40.386956999999995], [49.836378, 40.386956999999995], [49.836378, 40.380187]]]}, "properties": {"h3": "kd:00110101"}}, {"type": "Feature", "id": "kd:00110110", "geometry": {"type": "Polygon", "coordinates": [[[49.830895, 40.386956999999995], [49.836196, 40.386956999999995], [49.836196, 40.39303], [49.830895, 40.39303], [49.830895, 40.386956999999995]]]}, "properties": {"h3": "kd:00110110"}}, {"type": "Feature", "id": "kd:00110111", "geometry": {"type": "Polygon", "coordinates": [[[49.836196, 40.386956999999995], [49.840703, 40.386956999999995], [49.840703, 40.39303], [49.836196, 40.39303], [49.836196, 40.386956999999995]]]}, "properties": {"h3": "kd:00110111"}}, {"type": "Feature", "id": "kd:00111000", "geometry": {"type": "Polygon", "coordinates": [[[49.820282, 40.39303], [49.825147, 40.39303], [49.825147, 40.400284], [49.820282, 40.400284], [49.820282, 40.39303]]]}, "properties": {"h3": "kd:00111000"}}, {"type": "Feature", "id": "kd:00111001", "geometry": {"type": "Polygon", "coordinates": [[[49.825147, 40.39303], [49.8301565, 40.39303], [49.8301565, 40.400284], [49.825147, 40.400284], [49.825147, 40.39303]]]}, "properties": {"h3": "kd:00111001"}}, {"type": "Feature", "id": "kd:00111010", "geometry": {"type": "Polygon", "coordinates": [[[49.8301565, 40.39303], [49.835067, 40.39303], [49.835067, 40.400284], [49.8301565, 40.400284], [49.8301565, 40.39303]]]}, "properties": {"h3": "kd:00111010"}}, {"type": "Feature", "id": "kd:00111011", "geometry": {"type": "Polygon", "coordinates": [[[49.835067, 40.39303], [49.840703, 40.39303], [49.840703, 40.400284], [49.835067, 40.400284], [49.835067, 40.39303]]]}, "properties": {"h3": "kd:00111011"}}, {"type": "Feature", "id": "kd:00111100", "geometry": {"type": "Polygon", "coordinates": [[[49.820282, 40.400284], [49.829573, 40.400284], [49.829573, 40.404472], [49.820282, 40.404472], [49.820282, 40.400284]]]}, "properties": {"h3": "kd:00111100"}}, {"type": "Feature", "id": "kd:00111101", "geometry": {"type": "Polygon", "coordinates": [[[49.820282, 40.404472], [49.829573, 40.404472], [49.829573, 40.4087245], [49.820282, 40.4087245], [49.820282, 40.404472]]]}, "properties": {"h3": "kd:00111101"}}, {"type": "Feature", "id": "kd:00111110", "geometry": {"type": "Polygon", "coordinates": [[[49.829573, 40.400284], [49.834905000000006, 40.400284], [49.834905000000006, 40.4087245], [49.829573, 40.4087245], [49.829573, 40.400284]]]}, "properties": {"h3": "kd:00111110"}}, {"type": "Feature", "id": "kd:00111111", "geometry": {"type": "Polygon", "coordinates": [[[49.834905000000006, 40.400284], [49.840703, 40.400284], [49.840703, 40.4087245], [49.834905000000006, 40.4087245], [49.834905000000006, 40.400284]]]}, "properties": {"h3": "kd:00111111"}}, {"type": "Feature", "id": "kd:01000000", "geometry": {"type": "Polygon", "coordinates": [[[49.597304, 40.4087245], [49.724812, 40.4087245], [49.724812, 40.454662], [49.597304, 40.454662], [49.597304, 40.4087245]]]}, "properties": {"h3": "kd:01000000"}}, {"type": "Feature", "id": "kd:01000001", "geometry": {"type": "Polygon", "coordinates": [[[49.724812, 40.4087245], [49.732692, 40.4087245], [49.732692, 40.454662], [49.724812, 40.454662], [49.724812, 40.4087245]]]}, "properties": {"h3": "kd:01000001"}}, {"type": "Feature", "id": "kd:01000010", "geometry": {"type": "Polygon", "coordinates": [[[49.732692, 40.4087245], [49.7435465, 40.4087245], [49.7435465, 40.440085], [49.732692, 40.440085], [49.732692, 40.4087245]]]}, "properties": {"h3": "kd:01000010"}}, {"type": "Feature", "id": "kd:01000011", "geometry": {"type": "Polygon", "coordinates": [[[49.732692, 40.440085], [49.7435465, 40.440085], [49.7435465, 40.454662], [49.732692, 40.454662], [49.732692, 40.440085]]]}, "properties": {"h3": "kd:01000011"}}, {"type": "Feature", "id": "kd:01000100", "geometry": {"type": "Polygon", "coordinates": [[[49.7435465, 40.4087245], [49.757511, 40.4087245], [49.757511, 40.432788], [49.7435465, 40.432788], [49.7435465, 40.4087245]]]}, "properties": {"h3": "kd:01000100"}}, {"type": "Feature", "id": "kd:01000101", "geometry": {"type": "Polygon", "coordinates": [[[49.7435465, 40.432788], [49.757511, 40.432788], [49.757511, 40.441343], [49.7435465, 40.441343], [49.7435465, 40.432788]]]}, "properties": {"h3": "kd:01000101"}}, {"type": "Feature", "id": "kd:01000110", "geometry": {"type": "Polygon", "coordinates": [[[49.7435465, 40.441343], [49.757511, 40.441343], [49.757511, 40.448098], [49.7435465, 40.448098], [49.7435465, 40.441343]]]}, "properties": {"h3": "kd:01000110"}}, {"type": "Feature", "id": "kd:01000111", "geometry": {"type": "Polygon", "coordinates": [[[49.7435465, 40.448098], [49.757511, 40.448098], [49.757511, 40.454662], [49.7435465, 40.454662], [49.7435465, 40.448098]]]}, "properties": {"h3": "kd:01000111"}}, {"type": "Feature", "id": "kd:01001000", "geometry": {"type": "Polygon", "coordinates": [[[49.757511, 40.4087245], [49.782877, 40.4087245], [49.782877, 40.4261915], [49.757511, 40.4261915], [49.757511, 40.4087245]]]}, "properties": {"h3": "kd:01001000"}}, {"type": "Feature", "id": "kd:01001001", "geometry": {"type": "Polygon", "coordinates": [[[49.782877, 40.4087245], [49.792358, 40.4087245], [49.792358, 40.4261915], [49.782877, 40.4261915], [49.782877, 40.4087245]]]}, "properties": {"h3": "kd:01001001"}}, {"type": "Feature", "id": "kd:01001010", "geometry": {"type": "Polygon", "coordinates": [[[49.757511, 40.4261915], [49.768856, 40.4261915], [49.768856, 40.4390065], [49.757511, 40.4390065], [49.757511, 40.4261915]]]}, "properties": {"h3": "kd:01001010"}}, {"type": "Feature", "id": "kd:01001011", "geometry": {"type": "Polygon", "coordinates": [[[49.768856, 40.4261915], [49.792358, 40.4261915], [49.792358, 40.4390065], [49.768856, 40.4390065], [49.768856, 40.4261915]]]}, "properties": {"h3": "kd:01001011"}}, {"type": "Feature", "id": "kd:01001100", "geometry": {"type": "Polygon", "coordinates": [[[49.757511, 40.4390065], [49.769017500000004, 40.4390065], [49.769017500000004, 40.447623], [49.757511, 40.447623], [49.757511, 40.4390065]]]}, "properties": {"h3": "kd:01001100"}}, {"type": "Feature", "id": "kd:01001101", "geometry": {"type": "Polygon", "coordinates": [[[49.757511, 40.447623], [49.769017500000004, 40.447623], [49.769017500000004, 40.454662], [49.757511, 40.454662], [49.757511, 40.447623]]]}, "properties": {"h3": "kd:01001101"}}, {"type": "Feature", "id": "kd:01001110", "geometry": {"type": "Polygon", "coordinates": [[[49.769017500000004, 40.4390065], [49.777498, 40.4390065], [49.777498, 40.454662], [49.769017500000004, 40.454662], [49.769017500000004, 40.4390065]]]}, "properties": {"h3": "kd:01001110"}}, {"type": "Feature", "id": "kd:01001111", "geometry": {"type": "Polygon", "coordinates": [[[49.777498, 40.4390065], [49.792358, 40.4390065], [49.792358, 40.454662], [49.777498, 40.454662], [49.777498, 40.4390065]]]}, "properties": {"h3": "kd:01001111"}}, {"type": "Feature", "id": "kd:01010000", "geometry": {"type": "Polygon", "coordinates": [[[49.792358, 40.4087245], [49.799543, 40.4087245], [49.799543, 40.417739], [49.792358, 40.417739], [49.792358, 40.4087245]]]}, "properties": {"h3": "kd:01010000"}}, {"type": "Feature", "id": "kd:01010001", "geometry": {"type": "Polygon", "coordinates": [[[49.799543, 40.4087245], [49.804958, 40.4087245], [49.804958, 40.417739], [49.799543, 40.417739], [49.799543, 40.4087245]]]}, "properties": {"h3": "kd:01010001"}}, {"type": "Feature", "id": "kd:01010010", "geometry": {"type": "Polygon", "coordinates": [[[49.804958, 40.4087245], [49.8157395, 40.4087245], [49.8157395, 40.412578], [49.804958, 40.412578], [49.804958, 40.4087245]]]}, "properties": {"h3": "kd:01010010"}}, {"type": "Feature", "id": "kd:01010011", "geometry": {"type": "Polygon", "coordinates": [[[49.804958, 40.412578], [49.8157395, 40.412578], [49.8157395, 40.417739], [49.804958, 40.417739], [49.804958, 40.412578]]]}, "properties": {"h3": "kd:01010011"}}, {"type": "Feature", "id": "kd:01010100", "geometry": {"type": "Polygon", "coordinates": [[[49.8157395, 40.4087245], [49.826933499999996, 40.4087245], [49.826933499999996, 40.412862], [49.8157395, 40.412862], [49.8157395, 40.4087245]]]}, "properties": {"h3": "kd:01010100"}}, {"type": "Feature", "id": "kd:01010101", "geometry": {"type": "Polygon", "coordinates": [[[49.8157395, 40.412862], [49.826933499999996, 40.412862], [49.826933499999996, 40.417739], [49.8157395, 40.417739], [49.8157395, 40.412862]]]}, "properties": {"h3": "kd:01010101"}}, {"type": "Feature", "id": "kd:01010110", "geometry": {"type": "Polygon", "coordinates": [[[49.826933499999996, 40.4087245], [49.833614, 40.4087245], [49.833614, 40.417739], [49.826933499999996, 40.417739], [49.826933499999996, 40.4087245]]]}, "properties": {"h3": "kd:01010110"}}, {"type": "Feature", "id": "kd:01010111", "geometry": {"type": "Polygon", "coordinates": [[[49.833614, 40.4087245], [49.840703, 40.4087245], [49.840703, 40.417739], [49.833614, 40.417739], [49.833614, 40.4087245]]]}, "properties": {"h3": "kd:01010111"}}, {"type": "Feature", "id": "kd:01011000", "geometry": {"type": "Polygon", "coordinates": [[[49.792358, 40.417739], [49.805473, 40.417739], [49.805473, 40.4253875], [49.792358, 40.4253875], [49.792358, 40.417739]]]}, "properties": {"h3": "kd:01011000"}}, {"type": "Feature", "id": "kd:01011001", "geometry": {"type": "Polygon", "coordinates": [[[49.805473, 40.417739], [49.8145855, 40.417739], [49.8145855, 40.4253875], [49.805473, 40.4253875], [49.805473, 40.417739]]]}, "properties": {"h3": "kd:01011001"}}, {"type": "Feature", "id": "kd:01011010", "geometry": {"type": "Polygon", "coordinates": [[[49.8145855, 40.417739], [49.825382, 40.417739], [49.825382, 40.4253875], [49.8145855, 40.4253875], [49.8145855, 40.417739]]]}, "properties": {"h3": "kd:01011010"}}, {"type": "Feature", "id": "kd:01011011", "geometry": {"type": "Polygon", "coordinates": [[[49.825382, 40.417739], [49.840703, 40.417739], [49.840703, 40.4253875], [49.825382, 40.4253875], [49.825382, 40.417739]]]}, "properties": {"h3": "kd:01011011"}}, {"type": "Feature", "id": "kd:01011100", "geometry": {"type": "Polygon", "coordinates": [[[49.792358, 40.4253875], [49.8170795, 40.4253875], [49.8170795, 40.433088], [49.792358, 40.433088], [49.792358, 40.4253875]]]}, "properties": {"h3": "kd:01011100"}}, {"type": "Feature", "id": "kd:01011101", "geometry": {"type": "Polygon", "coordinates": [[[49.792358, 40.433088], [49.8170795, 40.433088], [49.8170795, 40.454662], [49.792358, 40.454662], [49.792358, 40.433088]]]}, "properties": {"h3": "kd:01011101"}}, {"type": "Feature", "id": "kd:01011110", "geometry": {"type": "Polygon", "coordinates": [[[49.8170795, 40.4253875], [49.840703, 40.4253875], [49.840703, 40.433353], [49.8170795, 40.433353], [49.8170795, 40.4253875]]]}, "properties": {"h3": "kd:01011110"}}, {"type": "Feature", "id": "kd:01011111", "geometry": {"type": "Polygon", "coordinates": [[[49.8170795, 40.433353], [49.840703, 40.433353], [49.840703, 40.454662], [49.8170795, 40.454662], [49.8170795, 40.433353]]]}, "properties": {"h3": "kd:01011111"}}, {"type": "Feature", "id": "kd:01100000", "geometry": {"type": "Polygon", "coordinates": [[[49.597304, 40.454662], [49.728459, 40.454662], [49.728459, 40.551591], [49.597304, 40.551591], [49.597304, 40.454662]]]}, "properties": {"h3": "kd:01100000"}}, {"type": "Feature", "id": "kd:01100001", "geometry": {"type": "Polygon", "coordinates": [[[49.597304, 40.551591], [49.728459, 40.551591], [49.728459, 40.5613065], [49.597304, 40.5613065], [49.597304, 40.551591]]]}, "properties": {"h3": "kd:01100001"}}, {"type": "Feature", "id": "kd:01100010", "geometry": {"type": "Polygon", "coordinates": [[[49.597304, 40.5613065], [49.668107, 40.5613065], [49.668107, 40.570494999999994], [49.597304, 40.570494999999994], [49.597304, 40.5613065]]]}, "properties": {"h3": "kd:01100010"}}, {"type": "Feature", "id": "kd:01100011", "geometry": {"type": "Polygon", "coordinates": [[[49.668107, 40.5613065], [49.728459, 40.5613065], [49.728459, 40.570494999999994], [49.668107, 40.570494999999994], [49.668107, 40.5613065]]]}, "properties": {"h3": "kd:01100011"}}, {"type": "Feature", "id": "kd:01100100", "geometry": {"type": "Polygon", "coordinates": [[[49.597304, 40.570494999999994], [49.654433, 40.570494999999994], [49.654433, 40.581114], [49.597304, 40.581114], [49.597304, 40.570494999999994]]]}, "properties": {"h3": "kd:01100100"}}, {"type": "Feature", "id": "kd:01100101", "geometry": {"type": "Polygon", "coordinates": [[[49.654433, 40.570494999999994], [49.669419, 40.570494999999994], [49.669419, 40.581114], [49.654433, 40.581114], [49.654433, 40.570494999999994]]]}, "properties": {"h3": "kd:01100101"}}, {"type": "Feature", "id": "kd:01100110", "geometry": {"type": "Polygon", "coordinates": [[[49.669419, 40.570494999999994], [49.683456, 40.570494999999994], [49.683456, 40.581114], [49.669419, 40.581114], [49.669419, 40.570494999999994]]]}, "properties": {"h3": "kd:01100110"}}, {"type": "Feature", "id": "kd:01100111", "geometry": {"type": "Polygon", "coordinates": [[[49.683456, 40.570494999999994], [49.728459, 40.570494999999994], [49.728459, 40.581114], [49.683456, 40.581114], [49.683456, 40.570494999999994]]]}, "properties": {"h3": "kd:01100111"}}, {"type": "Feature", "id": "kd:01101000", "geometry": {"type": "Polygon", "coordinates": [[[49.728459, 40.454662], [49.744951, 40.454662], [49.744951, 40.463922999999994], [49.728459, 40.463922999999994], [49.728459, 40.454662]]]}, "properties": {"h3": "kd:01101000"}}, {"type": "Feature", "id": "kd:01101001", "geometry": {"type": "Polygon", "coordinates": [[[49.744951, 40.454662], [49.7592255, 40.454662], [49.7592255, 40.463922999999994], [49.744951, 40.463922999999994], [49.744951, 40.454662]]]}, "properties": {"h3": "kd:01101001"}}, {"type": "Feature", "id": "kd:01101010", "geometry": {"type": "Polygon", "coordinates": [[[49.7592255, 40.454662], [49.774684, 40.454662], [49.774684, 40.463922999999994], [49.7592255, 40.463922999999994], [49.7592255, 40.454662]]]}, "properties": {"h3": "kd:01101010"}}, {"type": "Feature", "id": "kd:01101011", "geometry": {"type": "Polygon", "coordinates": [[[49.774684, 40.454662], [49.840703, 40.454662], [49.840703, 40.463922999999994], [49.774684, 40.463922999999994], [49.774684, 40.454662]]]}, "properties": {"h3": "kd:01101011"}}, {"type": "Feature", "id": "kd:01101100", "geometry": {"type": "Polygon", "coordinates": [[[49.728459, 40.463922999999994], [49.758531, 40.463922999999994], [49.758531, 40.471093999999994], [49.728459, 40.471093999999994], [49.728459, 40.463922999999994]]]}, "properties": {"h3": "kd:01101100"}}, {"type": "Feature", "id": "kd:01101101", "geometry": {"type": "Polygon", "coordinates": [[[49.758531, 40.463922999999994], [49.840703, 40.463922999999994], [49.840703, 40.471093999999994], [49.758531, 40.471093999999994], [49.758531, 40.463922999999994]]]}, "properties": {"h3": "kd:01101101"}}, {"type": "Feature", "id": "kd:01101110", "geometry": {"type": "Polygon", "coordinates": [[[49.728459, 40.471093999999994], [49.840703, 40.471093999999994], [49.840703, 40.477442], [49.728459, 40.477442], [49.728459, 40.471093999999994]]]}, "properties": {"h3": "kd:01101110"}}, {"type": "Feature", "id": "kd:01101111", "geometry": {"type": "Polygon", "coordinates": [[[49.728459, 40.477442], [49.840703, 40.477442], [49.840703, 40.581114], [49.728459, 40.581114], [49.728459, 40.477442]]]}, "properties": {"h3": "kd:01101111"}}, {"type": "Feature", "id": "kd:01110000", "geometry": {"type": "Polygon", "coordinates": [[[49.597304, 40.581114], [49.643846, 40.581114], [49.643846, 40.59716349999999], [49.597304, 40.59716349999999], [49.597304, 40.581114]]]}, "properties": {"h3": "kd:01110000"}}, {"type": "Feature", "id": "kd:01110001", "geometry": {"type": "Polygon", "coordinates": [[[49.643846, 40.581114], [49.6534965, 40.581114], [49.6534965, 40.59716349999999], [49.643846, 40.59716349999999], [49.643846, 40.581114]]]}, "properties": {"h3": "kd:01110001"}}, {"type": "Feature", "id": "kd:01110010", "geometry": {"type": "Polygon", "coordinates": [[[49.6534965, 40.581114], [49.669522, 40.581114], [49.669522, 40.589069], [49.6534965, 40.589069], [49.6534965, 40.581114]]]}, "properties": {"h3": "kd:01110010"}}, {"type": "Feature", "id": "kd:01110011", "geometry": {"type": "Polygon", "coordinates": [[[49.6534965, 40.589069], [49.669522, 40.589069], [49.669522, 40.59716349999999], [49.6534965, 40.59716349999999], [49.6534965, 40.589069]]]}, "properties": {"h3": "kd:01110011"}}, {"type": "Feature", "id": "kd:01110100", "geometry": {"type": "Polygon", "coordinates": [[[49.597304, 40.59716349999999], [49.6550025, 40.59716349999999], [49.6550025, 40.606117], [49.597304, 40.606117], [49.597304, 40.59716349999999]]]}, "properties": {"h3": "kd:01110100"}}, {"type": "Feature", "id": "kd:01110101", "geometry": {"type": "Polygon", "coordinates": [[[49.597304, 40.606117], [49.6550025, 40.606117], [49.6550025, 40.650755999999994], [49.597304, 40.650755999999994], [49.597304, 40.606117]]]}, "properties": {"h3": "kd:01110101"}}, {"type": "Feature", "id": "kd:01110110", "geometry": {"type": "Polygon", "coordinates": [[[49.6550025, 40.59716349999999], [49.669522, 40.59716349999999], [49.669522, 40.606146], [49.6550025, 40.606146], [49.6550025, 40.59716349999999]]]}, "properties": {"h3": "kd:01110110"}}, {"type": "Feature", "id": "kd:01110111", "geometry": {"type": "Polygon", "coordinates": [[[49.6550025, 40.606146], [49.669522, 40.606146], [49.669522, 40.650755999999994], [49.6550025, 40.650755999999994], [49.6550025, 40.606146]]]}, "properties": {"h3": "kd:01110111"}}, {"type": "Feature", "id": "kd:01111000", "geometry": {"type": "Polygon", "coordinates": [[[49.669522, 40.581114], [49.684092, 40.581114], [49.684092, 40.59018], [49.669522, 40.59018], [49.669522, 40.581114]]]}, "properties": {"h3": "kd:01111000"}}, {"type": "Feature", "id": "kd:01111001", "geometry": {"type": "Polygon", "coordinates": [[[49.669522, 40.59018], [49.684092, 40.59018], [49.684092, 40.596889000000004], [49.669522, 40.596889000000004], [49.669522, 40.59018]]]}, "properties": {"h3": "kd:01111001"}}, {"type": "Feature", "id": "kd:01111010", "geometry": {"type": "Polygon", "coordinates": [[[49.669522, 40.596889000000004], [49.684092, 40.596889000000004], [49.684092, 40.609249], [49.669522, 40.609249], [49.669522, 40.596889000000004]]]}, "properties": {"h3": "kd:01111010"}}, {"type": "Feature", "id": "kd:01111011", "geometry": {"type": "Polygon", "coordinates": [[[49.669522, 40.609249], [49.684092, 40.609249], [49.684092, 40.650755999999994], [49.669522, 40.650755999999994], [49.669522, 40.609249]]]}, "properties": {"h3": "kd:01111011"}}, {"type": "Feature", "id": "kd:01111100", "geometry": {"type": "Polygon", "coordinates": [[[49.684092, 40.581114], [49.695149, 40.581114], [49.695149, 40.596719], [49.684092, 40.596719], [49.684092, 40.581114]]]}, "properties": {"h3": "kd:01111100"}}, {"type": "Feature", "id": "kd:01111101", "geometry": {"type": "Polygon", "coordinates": [[[49.684092, 40.596719], [49.695149, 40.596719], [49.695149, 40.650755999999994], [49.684092, 40.650755999999994], [49.684092, 40.596719]]]}, "properties": {"h3": "kd:01111101"}}, {"type": "Feature", "id": "kd:01111110", "geometry": {"type": "Polygon", "coordinates": [[[49.695149, 40.581114], [49.703679, 40.581114], [49.703679, 40.650755999999994], [49.695149, 40.650755999999994], [49.695149, 40.581114]]]}, "properties": {"h3": "kd:01111110"}}, {"type": "Feature", "id": "kd:01111111", "geometry": {"type": "Polygon", "coordinates": [[[49.703679, 40.581114], [49.840703, 40.581114], [49.840703, 40.650755999999994], [49.703679, 40.650755999999994], [49.703679, 40.581114]]]}, "properties": {"h3": "kd:01111111"}}, {"type": "Feature", "id": "kd:10000000", "geometry": {"type": "Polygon", "coordinates": [[[49.840703, 40.300253000000005], [49.866728, 40.300253000000005], [49.866728, 40.338175], [49.840703, 40.338175], [49.840703, 40.300253000000005]]]}, "properties": {"h3": "kd:10000000"}}, {"type": "Feature", "id": "kd:10000001", "geometry": {"type": "Polygon", "coordinates": [[[49.840703, 40.338175], [49.866728, 40.338175], [49.866728, 40.3451175], [49.840703, 40.3451175], [49.840703, 40.338175]]]}, "properties": {"h3": "kd:10000001"}}, {"type": "Feature", "id": "kd:10000010", "geometry": {"type": "Polygon", "coordinates": [[[49.840703, 40.3451175], [49.854011, 40.3451175], [49.854011, 40.3518855], [49.840703, 40.3518855], [49.840703, 40.3451175]]]}, "properties": {"h3": "kd:10000010"}}, {"type": "Feature", "id": "kd:10000011", "geometry": {"type": "Polygon", "coordinates": [[[49.854011, 40.3451175], [49.866728, 40.3451175], [49.866728, 40.3518855], [49.854011, 40.3518855], [49.854011, 40.3451175]]]}, "properties": {"h3": "kd:10000011"}}, {"type": "Feature", "id": "kd:10000100", "geometry": {"type": "Polygon", "coordinates": [[[49.840703, 40.3518855], [49.848056, 40.3518855], [49.848056, 40.360589000000004], [49.840703, 40.360589000000004], [49.840703, 40.3518855]]]}, "properties": {"h3": "kd:10000100"}}, {"type": "Feature", "id": "kd:10000101", "geometry": {"type": "Polygon", "coordinates": [[[49.848056, 40.3518855], [49.853260000000006, 40.3518855], [49.853260000000006, 40.360589000000004], [49.848056, 40.360589000000004], [49.848056, 40.3518855]]]}, "properties": {"h3": "kd:10000101"}}, {"type": "Feature", "id": "kd:10000110", "geometry": {"type": "Polygon", "coordinates": [[[49.853260000000006, 40.3518855], [49.859732, 40.3518855], [49.859732, 40.360589000000004], [49.853260000000006, 40.360589000000004], [49.853260000000006, 40.3518855]]]}, "properties": {"h3": "kd:10000110"}}, {"type": "Feature", "id": "kd:10000111", "geometry": {"type": "Polygon", "coordinates": [[[49.859732, 40.3518855], [49.866728, 40.3518855], [49.866728, 40.360589000000004], [49.859732, 40.360589000000004], [49.859732, 40.3518855]]]}, "properties": {"h3": "kd:10000111"}}, {"type": "Feature", "id": "kd:10001000", "geometry": {"type": "Polygon", "coordinates": [[[49.840703, 40.360589000000004], [49.846871, 40.360589000000004], [49.846871, 40.366551], [49.840703, 40.366551], [49.840703, 40.360589000000004]]]}, "properties": {"h3": "kd:10001000"}}, {"type": "Feature", "id": "kd:10001001", "geometry": {"type": "Polygon", "coordinates": [[[49.846871, 40.360589000000004], [49.853214, 40.360589000000004], [49.853214, 40.366551], [49.846871, 40.366551], [49.846871, 40.360589000000004]]]}, "properties": {"h3": "kd:10001001"}}, {"type": "Feature", "id": "kd:10001010", "geometry": {"type": "Polygon", "coordinates": [[[49.840703, 40.366551], [49.84743, 40.366551], [49.84743, 40.372054], [49.840703, 40.372054], [49.840703, 40.366551]]]}, "properties": {"h3": "kd:10001010"}}, {"type": "Feature", "id": "kd:10001011", "geometry": {"type": "Polygon", "coordinates": [[[49.84743, 40.366551], [49.853214, 40.366551], [49.853214, 40.372054], [49.84743, 40.372054], [49.84743, 40.366551]]]}, "properties": {"h3": "kd:10001011"}}, {"type": "Feature", "id": "kd:10001100", "geometry": {"type": "Polygon", "coordinates": [[[49.853214, 40.360589000000004], [49.859074, 40.360589000000004], [49.859074, 40.3670625], [49.853214, 40.3670625], [49.853214, 40.360589000000004]]]}, "properties": {"h3": "kd:10001100"}}, {"type": "Feature", "id": "kd:10001101", "geometry": {"type": "Polygon", "coordinates": [[[49.859074, 40.360589000000004], [49.866728, 40.360589000000004], [49.866728, 40.3670625], [49.859074, 40.3670625], [49.859074, 40.360589000000004]]]}, "properties": {"h3": "kd:10001101"}}, {"type": "Feature", "id": "kd:10001110", "geometry": {"type": "Polygon", "coordinates": [[[49.853214, 40.3670625], [49.85969, 40.3670625], [49.85969, 40.372054], [49.853214, 40.372054], [49.853214, 40.3670625]]]}, "properties": {"h3": "kd:10001110"}}, {"type": "Feature", "id": "kd:10001111", "geometry": {"type": "Polygon", "coordinates": [[[49.85969, 40.3670625], [49.866728, 40.3670625], [49.866728, 40.372054], [49.85969, 40.372054], [49.85969, 40.3670625]]]}, "properties": {"h3": "kd:10001111"}}, {"type": "Feature", "id": "kd:10010000", "geometry": {"type": "Polygon", "coordinates": [[[49.840703, 40.372054], [49.846955, 40.372054], [49.846955, 40.377174], [49.840703, 40.377174], [49.840703, 40.372054]]]}, "properties": {"h3": "kd:10010000"}}, {"type": "Feature", "id": "kd:10010001", "geometry": {"type": "Polygon", "coordinates": [[[49.846955, 40.372054], [49.853071, 40.372054], [49.853071, 40.377174], [49.846955, 40.377174], [49.846955, 40.372054]]]}, "properties": {"h3": "kd:10010001"}}, {"type": "Feature", "id": "kd:10010010", "geometry": {"type": "Polygon", "coordinates": [[[49.840703, 40.377174], [49.846827, 40.377174], [49.846827, 40.3815685], [49.840703, 40.3815685], [49.840703, 40.377174]]]}, "properties": {"h3": "kd:10010010"}}, {"type": "Feature", "id": "kd:10010011", "geometry": {"type": "Polygon", "coordinates": [[[49.846827, 40.377174], [49.853071, 40.377174], [49.853071, 40.3815685], [49.846827, 40.3815685], [49.846827, 40.377174]]]}, "properties": {"h3": "kd:10010011"}}, {"type": "Feature", "id": "kd:10010100", "geometry": {"type": "Polygon", "coordinates": [[[49.840703, 40.3815685], [49.84706, 40.3815685], [49.84706, 40.3862415], [49.840703, 40.3862415], [49.840703, 40.3815685]]]}, "properties": {"h3": "kd:10010100"}}, {"type": "Feature", "id": "kd:10010101", "geometry": {"type": "Polygon", "coordinates": [[[49.84706, 40.3815685], [49.853071, 40.3815685], [49.853071, 40.3862415], [49.84706, 40.3862415], [49.84706, 40.3815685]]]}, "properties": {"h3": "kd:10010101"}}, {"type": "Feature", "id": "kd:10010110", "geometry": {"type": "Polygon", "coordinates": [[[49.840703, 40.3862415], [49.846171, 40.3862415], [49.846171, 40.391122], [49.840703, 40.391122], [49.840703, 40.3862415]]]}, "properties": {"h3": "kd:10010110"}}, {"type": "Feature", "id": "kd:10010111", "geometry": {"type": "Polygon", "coordinates": [[[49.846171, 40.3862415], [49.853071, 40.3862415], [49.853071, 40.391122], [49.846171, 40.391122], [49.846171, 40.3862415]]]}, "properties": {"h3": "kd:10010111"}}, {"type": "Feature", "id": "kd:10011000", "geometry": {"type": "Polygon", "coordinates": [[[49.853071, 40.372054], [49.8596455, 40.372054], [49.8596455, 40.377064], [49.853071, 40.377064], [49.853071, 40.372054]]]}, "properties": {"h3": "kd:10011000"}}, {"type": "Feature", "id": "kd:10011001", "geometry": {"type": "Polygon", "coordinates": [[[49.853071, 40.377064], [49.8596455, 40.377064], [49.8596455, 40.3813085], [49.853071, 40.3813085], [49.853071, 40.377064]]]}, "properties": {"h3": "kd:10011001"}}, {"type": "Feature", "id": "kd:10011010", "geometry": {"type": "Polygon", "coordinates": [[[49.8596455, 40.372054], [49.866728, 40.372054], [49.866728, 40.377007], [49.8596455, 40.377007], [49.8596455, 40.372054]]]}, "properties": {"h3": "kd:10011010"}}, {"type": "Feature", "id": "kd:10011011", "geometry": {"type": "Polygon", "coordinates": [[[49.8596455, 40.377007], [49.866728, 40.377007], [49.866728, 40.3813085], [49.8596455, 40.3813085], [49.8596455, 40.377007]]]}, "properties": {"h3": "kd:10011011"}}, {"type": "Feature", "id": "kd:10011100", "geometry": {"type": "Polygon", "coordinates": [[[49.853071, 40.3813085], [49.859712, 40.3813085], [49.859712, 40.3861], [49.853071, 40.3861], [49.853071, 40.3813085]]]}, "properties": {"h3": "kd:10011100"}}, {"type": "Feature", "id": "kd:10011101", "geometry": {"type": "Polygon", "coordinates": [[[49.853071, 40.3861], [49.859712, 40.3861], [49.859712, 40.391122], [49.853071, 40.391122], [49.853071, 40.3861]]]}, "properties": {"h3": "kd:10011101"}}, {"type": "Feature", "id": "kd:10011110", "geometry": {"type": "Polygon", "coordinates": [[[49.859712, 40.3813085], [49.866728, 40.3813085], [49.866728, 40.386021], [49.859712, 40.386021], [49.859712, 40.3813085]]]}, "properties": {"h3": "kd:10011110"}}, {"type": "Feature", "id": "kd:10011111", "geometry": {"type": "Polygon", "coordinates": [[[49.859712, 40.386021], [49.866728, 40.386021], [49.866728, 40.391122], [49.859712, 40.391122], [49.859712, 40.386021]]]}, "properties": {"h3": "kd:10011111"}}, {"type": "Feature", "id": "kd:10100000", "geometry": {"type": "Polygon", "coordinates": [[[49.866728, 40.300253000000005], [49.891262, 40.300253000000005], [49.891262, 40.344843], [49.866728, 40.344843], [49.866728, 40.300253000000005]]]}, "properties": {"h3": "kd:10100000"}}, {"type": "Feature", "id": "kd:10100001", "geometry": {"type": "Polygon", "coordinates": [[[49.866728, 40.344843], [49.891262, 40.344843], [49.891262, 40.352036999999996], [49.866728, 40.352036999999996], [49.866728, 40.344843]]]}, "properties": {"h3": "kd:10100001"}}, {"type": "Feature", "id": "kd:10100010", "geometry": {"type": "Polygon", "coordinates": [[[49.866728, 40.352036999999996], [49.874927, 40.352036999999996], [49.874927, 40.360999], [49.866728, 40.360999], [49.866728, 40.352036999999996]]]}, "properties": {"h3": "kd:10100010"}}, {"type": "Feature", "id": "kd:10100011", "geometry": {"type": "Polygon", "coordinates": [[[49.874927, 40.352036999999996], [49.891262, 40.352036999999996], [49.891262, 40.360999], [49.874927, 40.360999], [49.874927, 40.352036999999996]]]}, "properties": {"h3": "kd:10100011"}}, {"type": "Feature", "id": "kd:10100100", "geometry": {"type": "Polygon", "coordinates": [[[49.866728, 40.360999], [49.8761435, 40.360999], [49.8761435, 40.366813], [49.866728, 40.366813], [49.866728, 40.360999]]]}, "properties": {"h3": "kd:10100100"}}, {"type": "Feature", "id": "kd:10100101", "geometry": {"type": "Polygon", "coordinates": [[[49.866728, 40.366813], [49.8761435, 40.366813], [49.8761435, 40.3720875], [49.866728, 40.3720875], [49.866728, 40.366813]]]}, "properties": {"h3": "kd:10100101"}}, {"type": "Feature", "id": "kd:10100110", "geometry": {"type": "Polygon", "coordinates": [[[49.8761435, 40.360999], [49.881862, 40.360999], [49.881862, 40.3720875], [49.8761435, 40.3720875], [49.8761435, 40.360999]]]}, "properties": {"h3": "kd:10100110"}}, {"type": "Feature", "id": "kd:10100111", "geometry": {"type": "Polygon", "coordinates": [[[49.881862, 40.360999], [49.891262, 40.360999], [49.891262, 40.3720875], [49.881862, 40.3720875], [49.881862, 40.360999]]]}, "properties": {"h3": "kd:10100111"}}, {"type": "Feature", "id": "kd:10101000", "geometry": {"type": "Polygon", "coordinates": [[[49.866728, 40.3720875], [49.876477, 40.3720875], [49.876477, 40.377125], [49.866728, 40.377125], [49.866728, 40.3720875]]]}, "properties": {"h3": "kd:10101000"}}, {"type": "Feature", "id": "kd:10101001", "geometry": {"type": "Polygon", "coordinates": [[[49.866728, 40.377125], [49.876477, 40.377125], [49.876477, 40.381434999999996], [49.866728, 40.381434999999996], [49.866728, 40.377125]]]}, "properties": {"h3": "kd:10101001"}}, {"type": "Feature", "id": "kd:10101010", "geometry": {"type": "Polygon", "coordinates": [[[49.876477, 40.3720875], [49.882617, 40.3720875], [49.882617, 40.381434999999996], [49.876477, 40.381434999999996], [49.876477, 40.3720875]]]}, "properties": {"h3": "kd:10101010"}}, {"type": "Feature", "id": "kd:10101011", "geometry": {"type": "Polygon", "coordinates": [[[49.882617, 40.3720875], [49.891262, 40.3720875], [49.891262, 40.381434999999996], [49.882617, 40.381434999999996], [49.882617, 40.3720875]]]}, "properties": {"h3": "kd:10101011"}}, {"type": "Feature", "id": "kd:10101100", "geometry": {"type": "Polygon", "coordinates": [[[49.866728, 40.381434999999996], [49.875979, 40.381434999999996], [49.875979, 40.386041], [49.866728, 40.386041], [49.866728, 40.381434999999996]]]}, "properties": {"h3": "kd:10101100"}}, {"type": "Feature", "id": "kd:10101101", "geometry": {"type": "Polygon", "coordinates": [[[49.866728, 40.386041], [49.875979, 40.386041], [49.875979, 40.391122], [49.866728, 40.391122], [49.866728, 40.386041]]]}, "properties": {"h3": "kd:10101101"}}, {"type": "Feature", "id": "kd:10101110", "geometry": {"type": "Polygon", "coordinates": [[[49.875979, 40.381434999999996], [49.883192, 40.381434999999996], [49.883192, 40.391122], [49.875979, 40.391122], [49.875979, 40.381434999999996]]]}, "properties": {"h3": "kd:10101110"}}, {"type": "Feature", "id": "kd:10101111", "geometry": {"type": "Polygon", "coordinates": [[[49.883192, 40.381434999999996], [49.891262, 40.381434999999996], [49.891262, 40.391122], [49.883192, 40.391122], [49.883192, 40.381434999999996]]]}, "properties": {"h3": "kd:10101111"}}, {"type": "Feature", "id": "kd:10110000", "geometry": {"type": "Polygon", "coordinates": [[[49.891262, 40.300253000000005], [49.947128, 40.300253000000005], [49.947128, 40.353745], [49.891262, 40.353745], [49.891262, 40.300253000000005]]]}, "properties": {"h3": "kd:10110000"}}, {"type": "Feature", "id": "kd:10110001", "geometry": {"type": "Polygon", "coordinates": [[[49.891262, 40.353745], [49.947128, 40.353745], [49.947128, 40.362802], [49.891262, 40.362802], [49.891262, 40.353745]]]}, "properties": {"h3": "kd:10110001"}}, {"type": "Feature", "id": "kd:10110010", "geometry": {"type": "Polygon", "coordinates": [[[49.891262, 40.362802], [49.904677, 40.362802], [49.904677, 40.3746255], [49.891262, 40.3746255], [49.891262, 40.362802]]]}, "properties": {"h3": "kd:10110010"}}, {"type": "Feature", "id": "kd:10110011", "geometry": {"type": "Polygon", "coordinates": [[[49.904677, 40.362802], [49.947128, 40.362802], [49.947128, 40.3746255], [49.904677, 40.3746255], [49.904677, 40.362802]]]}, "properties": {"h3": "kd:10110011"}}, {"type": "Feature", "id": "kd:10110100", "geometry": {"type": "Polygon", "coordinates": [[[49.891262, 40.3746255], [49.9073955, 40.3746255], [49.9073955, 40.384228], [49.891262, 40.384228], [49.891262, 40.3746255]]]}, "properties": {"h3": "kd:10110100"}}, {"type": "Feature", "id": "kd:10110101", "geometry": {"type": "Polygon", "coordinates": [[[49.891262, 40.384228], [49.9073955, 40.384228], [49.9073955, 40.391122], [49.891262, 40.391122], [49.891262, 40.384228]]]}, "properties": {"h3": "kd:10110101"}}, {"type": "Feature", "id": "kd:10110110", "geometry": {"type": "Polygon", "coordinates": [[[49.9073955, 40.3746255], [49.921393, 40.3746255], [49.921393, 40.391122], [49.9073955, 40.391122], [49.9073955, 40.3746255]]]}, "properties": {"h3": "kd:10110110"}}, {"type": "Feature", "id": "kd:10110111", "geometry": {"type": "Polygon", "coordinates": [[[49.921393, 40.3746255], [49.947128, 40.3746255], [49.947128, 40.391122], [49.921393, 40.391122], [49.921393, 40.3746255]]]}, "properties": {"h3": "kd:10110111"}}, {"type": "Feature", "id": "kd:10111000", "geometry": {"type": "Polygon", "coordinates": [[[49.947128, 40.300253000000005], [50.00588, 40.300253000000005], [50.00588, 40.367143], [49.947128, 40.367143], [49.947128, 40.300253000000005]]]}, "properties": {"h3": "kd:10111000"}}, {"type": "Feature", "id": "kd:10111001", "geometry": {"type": "Polygon", "coordinates": [[[49.947128, 40.367143], [50.00588, 40.367143], [50.00588, 40.376239999999996], [49.947128, 40.376239999999996], [49.947128, 40.367143]]]}, "properties": {"h3": "kd:10111001"}}, {"type": "Feature", "id": "kd:10111010", "geometry": {"type": "Polygon", "coordinates": [[[49.947128, 40.376239999999996], [49.981228, 40.376239999999996], [49.981228, 40.391122], [49.947128, 40.391122], [49.947128, 40.376239999999996]]]}, "properties": {"h3": "kd:10111010"}}, {"type": "Feature", "id": "kd:10111011", "geometry": {"type": "Polygon", "coordinates": [[[49.981228, 40.376239999999996], [50.00588, 40.376239999999996], [50.00588, 40.391122], [49.981228, 40.391122], [49.981228, 40.376239999999996]]]}, "properties": {"h3": "kd:10111011"}}, {"type": "Feature", "id": "kd:10111100", "geometry": {"type": "Polygon", "coordinates": [[[50.00588, 40.300253000000005], [50.031251, 40.300253000000005], [50.031251, 40.375702], [50.00588, 40.375702], [50.00588, 40.300253000000005]]]}, "properties": {"h3": "kd:10111100"}}, {"type": "Feature", "id": "kd:10111101", "geometry": {"type": "Polygon", "coordinates": [[[50.00588, 40.375702], [50.031251, 40.375702], [50.031251, 40.391122], [50.00588, 40.391122], [50.00588, 40.375702]]]}, "properties": {"h3": "kd:10111101"}}, {"type": "Feature", "id": "kd:10111110", "geometry": {"type": "Polygon", "coordinates": [[[50.031251, 40.300253000000005], [50.129073999999996, 40.300253000000005], [50.129073999999996, 40.376334], [50.031251, 40.376334], [50.031251, 40.300253000000005]]]}, "properties": {"h3": "kd:10111110"}}, {"type": "Feature", "id": "kd:10111111", "geometry": {"type": "Polygon", "coordinates": [[[50.031251, 40.376334], [50.129073999999996, 40.376334], [50.129073999999996, 40.391122], [50.031251, 40.391122], [50.031251, 40.376334]]]}, "properties": {"h3": "kd:10111111"}}, {"type": "Feature", "id": "kd:11000000", "geometry": {"type": "Polygon", "coordinates": [[[49.840703, 40.391122], [49.849327, 40.391122], [49.849327, 40.395078999999996], [49.840703, 40.395078999999996], [49.840703, 40.391122]]]}, "properties": {"h3": "kd:11000000"}}, {"type": "Feature", "id": "kd:11000001", "geometry": {"type": "Polygon", "coordinates": [[[49.840703, 40.395078999999996], [49.849327, 40.395078999999996], [49.849327, 40.399647], [49.840703, 40.399647], [49.840703, 40.395078999999996]]]}, "properties": {"h3": "kd:11000001"}}, {"type": "Feature", "id": "kd:11000010", "geometry": {"type": "Polygon", "coordinates": [[[49.849327, 40.391122], [49.858543, 40.391122], [49.858543, 40.395396], [49.849327, 40.395396], [49.849327, 40.391122]]]}, "properties": {"h3": "kd:11000010"}}, {"type": "Feature", "id": "kd:11000011", "geometry": {"type": "Polygon", "coordinates": [[[49.849327, 40.395396], [49.858543, 40.395396], [49.858543, 40.399647], [49.849327, 40.399647], [49.849327, 40.395396]]]}, "properties": {"h3": "kd:11000011"}}, {"type": "Feature", "id": "kd:11000100", "geometry": {"type": "Polygon", "coordinates": [[[49.840703, 40.399647], [49.849231, 40.399647], [49.849231, 40.405252], [49.840703, 40.405252], [49.840703, 40.399647]]]}, "properties": {"h3": "kd:11000100"}}, {"type": "Feature", "id": "kd:11000101", "geometry": {"type": "Polygon", "coordinates": [[[49.840703, 40.405252], [49.849231, 40.405252], [49.849231, 40.4129005], [49.840703, 40.4129005], [49.840703, 40.405252]]]}, "properties": {"h3": "kd:11000101"}}, {"type": "Feature", "id": "kd:11000110", "geometry": {"type": "Polygon", "coordinates": [[[49.849231, 40.399647], [49.858543, 40.399647], [49.858543, 40.405316], [49.849231, 40.405316], [49.849231, 40.399647]]]}, "properties": {"h3": "kd:11000110"}}, {"type": "Feature", "id": "kd:11000111", "geometry": {"type": "Polygon", "coordinates": [[[49.849231, 40.405316], [49.858543, 40.405316], [49.858543, 40.4129005], [49.849231, 40.4129005], [49.849231, 40.405316]]]}, "properties": {"h3": "kd:11000111"}}, {"type": "Feature", "id": "kd:11001000", "geometry": {"type": "Polygon", "coordinates": [[[49.858543, 40.391122], [49.8684845, 40.391122], [49.8684845, 40.395058], [49.858543, 40.395058], [49.858543, 40.391122]]]}, "properties": {"h3": "kd:11001000"}}, {"type": "Feature", "id": "kd:11001001", "geometry": {"type": "Polygon", "coordinates": [[[49.858543, 40.395058], [49.8684845, 40.395058], [49.8684845, 40.3998715], [49.858543, 40.3998715], [49.858543, 40.395058]]]}, "properties": {"h3": "kd:11001001"}}, {"type": "Feature", "id": "kd:11001010", "geometry": {"type": "Polygon", "coordinates": [[[49.8684845, 40.391122], [49.873913, 40.391122], [49.873913, 40.3998715], [49.8684845, 40.3998715], [49.8684845, 40.391122]]]}, "properties": {"h3": "kd:11001010"}}, {"type": "Feature", "id": "kd:11001011", "geometry": {"type": "Polygon", "coordinates": [[[49.873913, 40.391122], [49.882367, 40.391122], [49.882367, 40.3998715], [49.873913, 40.3998715], [49.873913, 40.391122]]]}, "properties": {"h3": "kd:11001011"}}, {"type": "Feature", "id": "kd:11001100", "geometry": {"type": "Polygon", "coordinates": [[[49.858543, 40.3998715], [49.869748, 40.3998715], [49.869748, 40.405859], [49.858543, 40.405859], [49.858543, 40.3998715]]]}, "properties": {"h3": "kd:11001100"}}, {"type": "Feature", "id": "kd:11001101", "geometry": {"type": "Polygon", "coordinates": [[[49.858543, 40.405859], [49.869748, 40.405859], [49.869748, 40.4129005], [49.858543, 40.4129005], [49.858543, 40.405859]]]}, "properties": {"h3": "kd:11001101"}}, {"type": "Feature", "id": "kd:11001110", "geometry": {"type": "Polygon", "coordinates": [[[49.869748, 40.3998715], [49.882367, 40.3998715], [49.882367, 40.405971], [49.869748, 40.405971], [49.869748, 40.3998715]]]}, "properties": {"h3": "kd:11001110"}}, {"type": "Feature", "id": "kd:11001111", "geometry": {"type": "Polygon", "coordinates": [[[49.869748, 40.405971], [49.882367, 40.405971], [49.882367, 40.4129005], [49.869748, 40.4129005], [49.869748, 40.405971]]]}, "properties": {"h3": "kd:11001111"}}, {"type": "Feature", "id": "kd:11010000", "geometry": {"type": "Polygon", "coordinates": [[[49.882367, 40.391122], [49.890225, 40.391122], [49.890225, 40.401525], [49.882367, 40.401525], [49.882367, 40.391122]]]}, "properties": {"h3": "kd:11010000"}}, {"type": "Feature", "id": "kd:11010001", "geometry": {"type": "Polygon", "coordinates": [[[49.890225, 40.391122], [49.902671, 40.391122], [49.902671, 40.401525], [49.890225, 40.401525], [49.890225, 40.391122]]]}, "properties": {"h3": "kd:11010001"}}, {"type": "Feature", "id": "kd:11010010", "geometry": {"type": "Polygon", "coordinates": [[[49.882367, 40.401525], [49.891494, 40.401525], [49.891494, 40.4129005], [49.882367, 40.4129005], [49.882367, 40.401525]]]}, "properties": {"h3": "kd:11010010"}}, {"type": "Feature", "id": "kd:11010011", "geometry": {"type": "Polygon", "coordinates": [[[49.891494, 40.401525], [49.902671, 40.401525], [49.902671, 40.4129005], [49.891494, 40.4129005], [49.891494, 40.401525]]]}, "properties": {"h3": "kd:11010011"}}, {"type": "Feature", "id": "kd:11010100", "geometry": {"type": "Polygon", "coordinates": [[[49.902671, 40.391122], [49.918799500000006, 40.391122], [49.918799500000006, 40.403048], [49.902671, 40.403048], [49.902671, 40.391122]]]}, "properties": {"h3": "kd:11010100"}}, {"type": "Feature", "id": "kd:11010101", "geometry": {"type": "Polygon", "coordinates": [[[49.902671, 40.403048], [49.918799500000006, 40.403048], [49.918799500000006, 40.4129005], [49.902671, 40.4129005], [49.902671, 40.403048]]]}, "properties": {"h3": "kd:11010101"}}, {"type": "Feature", "id": "kd:11010110", "geometry": {"type": "Polygon", "coordinates": [[[49.918799500000006, 40.391122], [49.94093, 40.391122], [49.94093, 40.402908], [49.918799500000006, 40.402908], [49.918799500000006, 40.391122]]]}, "properties": {"h3": "kd:11010110"}}, {"type": "Feature", "id": "kd:11010111", "geometry": {"type": "Polygon", "coordinates": [[[49.918799500000006, 40.402908], [49.94093, 40.402908], [49.94093, 40.4129005], [49.918799500000006, 40.4129005], [49.918799500000006, 40.402908]]]}, "properties": {"h3": "kd:11010111"}}, {"type": "Feature", "id": "kd:11011000", "geometry": {"type": "Polygon", "coordinates": [[[49.94093, 40.391122], [49.958884, 40.391122], [49.958884, 40.4129005], [49.94093, 40.4129005], [49.94093, 40.391122]]]}, "properties": {"h3": "kd:11011000"}}, {"type": "Feature", "id": "kd:11011001", "geometry": {"type": "Polygon", "coordinates": [[[49.958884, 40.391122], [49.976496499999996, 40.391122], [49.976496499999996, 40.4129005], [49.958884, 40.4129005], [49.958884, 40.391122]]]}, "properties": {"h3": "kd:11011001"}}, {"type": "Feature", "id": "kd:11011010", "geometry": {"type": "Polygon", "coordinates": [[[49.976496499999996, 40.391122], [50.003403, 40.391122], [50.003403, 40.400893], [49.976496499999996, 40.400893], [49.976496499999996, 40.391122]]]}, "properties": {"h3": "kd:11011010"}}, {"type": "Feature", "id": "kd:11011011", "geometry": {"type": "Polygon", "coordinates": [[[49.976496499999996, 40.400893], [50.003403, 40.400893], [50.003403, 40.4129005], [49.976496499999996, 40.4129005], [49.976496499999996, 40.400893]]]}, "properties": {"h3": "kd:11011011"}}, {"type": "Feature", "id": "kd:11011100", "geometry": {"type": "Polygon", "coordinates": [[[50.003403, 40.391122], [50.028877, 40.391122], [50.028877, 40.402835], [50.003403, 40.402835], [50.003403, 40.391122]]]}, "properties": {"h3": "kd:11011100"}}, {"type": "Feature", "id": "kd:11011101", "geometry": {"type": "Polygon", "coordinates": [[[50.003403, 40.402835], [50.028877, 40.402835], [50.028877, 40.4129005], [50.003403, 40.4129005], [50.003403, 40.402835]]]}, "properties": {"h3": "kd:11011101"}}, {"type": "Feature", "id": "kd:11011110", "geometry": {"type": "Polygon", "coordinates": [[[50.028877, 40.391122], [50.047668, 40.391122], [50.047668, 40.4129005], [50.028877, 40.4129005], [50.028877, 40.391122]]]}, "properties": {"h3": "kd:11011110"}}, {"type": "Feature", "id": "kd:11011111", "geometry": {"type": "Polygon", "coordinates": [[[50.047668, 40.391122], [50.129073999999996, 40.391122], [50.129073999999996, 40.4129005], [50.047668, 40.4129005], [50.047668, 40.391122]]]}, "properties": {"h3": "kd:11011111"}}, {"type": "Feature", "id": "kd:11100000", "geometry": {"type": "Polygon", "coordinates": [[[49.840703, 40.4129005], [49.854445999999996, 40.4129005], [49.854445999999996, 40.419645], [49.840703, 40.419645], [49.840703, 40.4129005]]]}, "properties": {"h3": "kd:11100000"}}, {"type": "Feature", "id": "kd:11100001", "geometry": {"type": "Polygon", "coordinates": [[[49.840703, 40.419645], [49.854445999999996, 40.419645], [49.854445999999996, 40.430145], [49.840703, 40.430145], [49.840703, 40.419645]]]}, "properties": {"h3": "kd:11100001"}}, {"type": "Feature", "id": "kd:11100010", "geometry": {"type": "Polygon", "coordinates": [[[49.854445999999996, 40.4129005], [49.871747, 40.4129005], [49.871747, 40.419276], [49.854445999999996, 40.419276], [49.854445999999996, 40.4129005]]]}, "properties": {"h3": "kd:11100010"}}, {"type": "Feature", "id": "kd:11100011", "geometry": {"type": "Polygon", "coordinates": [[[49.854445999999996, 40.419276], [49.871747, 40.419276], [49.871747, 40.430145], [49.854445999999996, 40.430145], [49.854445999999996, 40.419276]]]}, "properties": {"h3": "kd:11100011"}}, {"type": "Feature", "id": "kd:11100100", "geometry": {"type": "Polygon", "coordinates": [[[49.871747, 40.4129005], [49.8859355, 40.4129005], [49.8859355, 40.420271], [49.871747, 40.420271], [49.871747, 40.4129005]]]}, "properties": {"h3": "kd:11100100"}}, {"type": "Feature", "id": "kd:11100101", "geometry": {"type": "Polygon", "coordinates": [[[49.871747, 40.420271], [49.8859355, 40.420271], [49.8859355, 40.430145], [49.871747, 40.430145], [49.871747, 40.420271]]]}, "properties": {"h3": "kd:11100101"}}, {"type": "Feature", "id": "kd:11100110", "geometry": {"type": "Polygon", "coordinates": [[[49.8859355, 40.4129005], [49.900929500000004, 40.4129005], [49.900929500000004, 40.421028], [49.8859355, 40.421028], [49.8859355, 40.4129005]]]}, "properties": {"h3": "kd:11100110"}}, {"type": "Feature", "id": "kd:11100111", "geometry": {"type": "Polygon", "coordinates": [[[49.8859355, 40.421028], [49.900929500000004, 40.421028], [49.900929500000004, 40.430145], [49.8859355, 40.430145], [49.8859355, 40.421028]]]}, "properties": {"h3": "kd:11100111"}}, {"type": "Feature", "id": "kd:11101000", "geometry": {"type": "Polygon", "coordinates": [[[49.900929500000004, 40.4129005], [49.9184695, 40.4129005], [49.9184695, 40.421304], [49.900929500000004, 40.421304], [49.900929500000004, 40.4129005]]]}, "properties": {"h3": "kd:11101000"}}, {"type": "Feature", "id": "kd:11101001", "geometry": {"type": "Polygon", "coordinates": [[[49.900929500000004, 40.421304], [49.9184695, 40.421304], [49.9184695, 40.430145], [49.900929500000004, 40.430145], [49.900929500000004, 40.421304]]]}, "properties": {"h3": "kd:11101001"}}, {"type": "Feature", "id": "kd:11101010", "geometry": {"type": "Polygon", "coordinates": [[[49.9184695, 40.4129005], [49.932528, 40.4129005], [49.932528, 40.430145], [49.9184695, 40.430145], [49.9184695, 40.4129005]]]}, "properties": {"h3": "kd:11101010"}}, {"type": "Feature", "id": "kd:11101011", "geometry": {"type": "Polygon", "coordinates": [[[49.932528, 40.4129005], [49.954193000000004, 40.4129005], [49.954193000000004, 40.430145], [49.932528, 40.430145], [49.932528, 40.4129005]]]}, "properties": {"h3": "kd:11101011"}}, {"type": "Feature", "id": "kd:11101100", "geometry": {"type": "Polygon", "coordinates": [[[49.954193000000004, 40.4129005], [49.984259, 40.4129005], [49.984259, 40.430145], [49.954193000000004, 40.430145], [49.954193000000004, 40.4129005]]]}, "properties": {"h3": "kd:11101100"}}, {"type": "Feature", "id": "kd:11101101", "geometry": {"type": "Polygon", "coordinates": [[[49.984259, 40.4129005], [50.007382, 40.4129005], [50.007382, 40.430145], [49.984259, 40.430145], [49.984259, 40.4129005]]]}, "properties": {"h3": "kd:11101101"}}, {"type": "Feature", "id": "kd:11101110", "geometry": {"type": "Polygon", "coordinates": [[[50.007382, 40.4129005], [50.030159, 40.4129005], [50.030159, 40.430145], [50.007382, 40.430145], [50.007382, 40.4129005]]]}, "properties": {"h3": "kd:11101110"}}, {"type": "Feature", "id": "kd:11101111", "geometry": {"type": "Polygon", "coordinates": [[[50.030159, 40.4129005], [50.129073999999996, 40.4129005], [50.129073999999996, 40.430145], [50.030159, 40.430145], [50.030159, 40.4129005]]]}, "properties": {"h3": "kd:11101111"}}, {"type": "Feature", "id": "kd:11110000", "geometry": {"type": "Polygon", "coordinates": [[[49.840703, 40.430145], [49.858651, 40.430145], [49.858651, 40.444369], [49.840703, 40.444369], [49.840703, 40.430145]]]}, "properties": {"h3": "kd:11110000"}}, {"type": "Feature", "id": "kd:11110001", "geometry": {"type": "Polygon", "coordinates": [[[49.858651, 40.430145], [49.876254, 40.430145], [49.876254, 40.444369], [49.858651, 40.444369], [49.858651, 40.430145]]]}, "properties": {"h3": "kd:11110001"}}, {"type": "Feature", "id": "kd:11110010", "geometry": {"type": "Polygon", "coordinates": [[[49.876254, 40.430145], [49.888817, 40.430145], [49.888817, 40.444369], [49.876254, 40.444369], [49.876254, 40.430145]]]}, "properties": {"h3": "kd:11110010"}}, {"type": "Feature", "id": "kd:11110011", "geometry": {"type": "Polygon", "coordinates": [[[49.888817, 40.430145], [49.902857499999996, 40.430145], [49.902857499999996, 40.444369], [49.888817, 40.444369], [49.888817, 40.430145]]]}, "properties": {"h3": "kd:11110011"}}, {"type": "Feature", "id": "kd:11110100", "geometry": {"type": "Polygon", "coordinates": [[[49.902857499999996, 40.430145], [49.918402, 40.430145], [49.918402, 40.444369], [49.902857499999996, 40.444369], [49.902857499999996, 40.430145]]]}, "properties": {"h3": "kd:11110100"}}, {"type": "Feature", "id": "kd:11110101", "geometry": {"type": "Polygon", "coordinates": [[[49.918402, 40.430145], [49.944948, 40.430145], [49.944948, 40.444369], [49.918402, 40.444369], [49.918402, 40.430145]]]}, "properties": {"h3": "kd:11110101"}}, {"type": "Feature", "id": "kd:11110110", "geometry": {"type": "Polygon", "coordinates": [[[49.944948, 40.430145], [49.990997, 40.430145], [49.990997, 40.444369], [49.944948, 40.444369], [49.944948, 40.430145]]]}, "properties": {"h3": "kd:11110110"}}, {"type": "Feature", "id": "kd:11110111", "geometry": {"type": "Polygon", "coordinates": [[[49.990997, 40.430145], [50.129073999999996, 40.430145], [50.129073999999996, 40.444369], [49.990997, 40.444369], [49.990997, 40.430145]]]}, "properties": {"h3": "kd:11110111"}}, {"type": "Feature", "id": "kd:11111000", "geometry": {"type": "Polygon", "coordinates": [[[49.840703, 40.444369], [49.871759, 40.444369], [49.871759, 40.456912], [49.840703, 40.456912], [49.840703, 40.444369]]]}, "properties": {"h3": "kd:11111000"}}, {"type": "Feature", "id": "kd:11111001", "geometry": {"type": "Polygon", "coordinates": [[[49.871759, 40.444369], [49.899918, 40.444369], [49.899918, 40.456912], [49.871759, 40.456912], [49.871759, 40.444369]]]}, "properties": {"h3": "kd:11111001"}}, {"type": "Feature", "id": "kd:11111010", "geometry": {"type": "Polygon", "coordinates": [[[49.840703, 40.456912], [49.899918, 40.456912], [49.899918, 40.469143], [49.840703, 40.469143], [49.840703, 40.456912]]]}, "properties": {"h3": "kd:11111010"}}, {"type": "Feature", "id": "kd:11111011", "geometry": {"type": "Polygon", "coordinates": [[[49.840703, 40.469143], [49.899918, 40.469143], [49.899918, 40.650755999999994], [49.840703, 40.650755999999994], [49.840703, 40.469143]]]}, "properties": {"h3": "kd:11111011"}}, {"type": "Feature", "id": "kd:11111100", "geometry": {"type": "Polygon", "coordinates": [[[49.899918, 40.444369], [49.935795, 40.444369], [49.935795, 40.455698], [49.899918, 40.455698], [49.899918, 40.444369]]]}, "properties": {"h3": "kd:11111100"}}, {"type": "Feature", "id": "kd:11111101", "geometry": {"type": "Polygon", "coordinates": [[[49.935795, 40.444369], [50.129073999999996, 40.444369], [50.129073999999996, 40.455698], [49.935795, 40.455698], [49.935795, 40.444369]]]}, "properties": {"h3": "kd:11111101"}}, {"type": "Feature", "id": "kd:11111110", "geometry": {"type": "Polygon", "coordinates": [[[49.899918, 40.455698], [50.129073999999996, 40.455698], [50.129073999999996, 40.466449499999996], [49.899918, 40.466449499999996], [49.899918, 40.455698]]]}, "properties": {"h3": "kd:11111110"}}, {"type": "Feature", "id": "kd:11111111", "geometry": {"type": "Polygon", "coordinates": [[[49.899918, 40.466449499999996], [50.129073999999996, 40.466449499999996], [50.129073999999996, 40.650755999999994], [49.899918, 40.650755999999994], [49.899918, 40.466449499999996]]]}, "properties": {"h3": "kd:11111111"}}]}