{"type": "FeatureCollection", "features": [{"type": "Feature", "id": "kd:0000000", "geometry": {"type": "Polygon", "coordinates": [[[49.605689000000005, 40.400556], [49.79065249999999, 40.400556], [49.79065249999999, 40.308968], [49.605689000000005, 40.308968], [49.605689000000005, 40.400556]]]}, "properties": {"h3": "kd:0000000"}}, {"type": "Feature", "id": "kd:0000001", "geometry": {"type": "Polygon", "coordinates": [[[49.79065249999999, 40.400556], [49.798139, 40.400556], [49.798139, 40.308968], [49.79065249999999, 40.308968], [49.79065249999999, 40.400556]]]}, "properties": {"h3": "kd:0000001"}}, {"type": "Feature", "id": "kd:0000010", "geometry": {"type": "Polygon", "coordinates": [[[49.798139, 40.386235], [49.805979, 40.386235], [49.805979, 40.308968], [49.798139, 40.308968], [49.798139, 40.386235]]]}, "properties": {"h3": "kd:0000010"}}, {"type": "Feature", "id": "kd:0000011", "geometry": {"type": "Polygon", "coordinates": [[[49.798139, 40.400556], [49.805979, 40.400556], [49.805979, 40.386235], [49.798139, 40.386235], [49.798139, 40.400556]]]}, "properties": {"h3": "kd:0000011"}}, {"type": "Feature", "id": "kd:0000100", "geometry": {"type": "Polygon", "coordinates": [[[49.805979, 40.371471], [49.8178365, 40.371471], [49.8178365, 40.308968], [49.805979, 40.308968], [49.805979, 40.371471]]]}, "properties": {"h3": "kd:0000100"}}, {"type": "Feature", "id": "kd:0000101", "geometry": {"type": "Polygon", "coordinates": [[[49.805979, 40.383281], [49.8178365, 40.383281], [49.8178365, 40.371471], [49.805979, 40.371471], [49.805979, 40.383281]]]}, "properties": {"h3": "kd:0000101"}}, {"type": "Feature", "id": "kd:0000110", "geometry": {"type": "Polygon", "coordinates": [[[49.805979, 40.393266], [49.8178365, 40.393266], [49.8178365, 40.383281], [49.805979, 40.383281], [49.805979, 40.393266]]]}, "properties": {"h3": "kd:0000110"}}, {"type": "Feature", "id": "kd:0000111", "geometry": {"type": "Polygon", "coordinates": [[[49.805979, 40.400556], [49.8178365, 40.400556], [49.8178365, 40.393266], [49.805979, 40.393266], [49.805979, 40.400556]]]}, "properties": {"h3": "kd:0000111"}}, {"type": "Feature", "id": "kd:0001000", "geometry": {"type": "Polygon", "coordinates": [[[49.8178365, 40.357432], [49.834072, 40.357432], [49.834072, 40.308968], [49.8178365, 40.308968], [49.8178365, 40.357432]]]}, "properties": {"h3": "kd:0001000"}}, {"type": "Feature", "id": "kd:0001001", "geometry": {"type": "Polygon", "coordinates": [[[49.8178365, 40.365825], [49.834072, 40.365825], [49.834072, 40.357432], [49.8178365, 40.357432], [49.8178365, 40.365825]]]}, "properties": {"h3": "kd:0001001"}}, {"type": "Feature", "id": "kd:0001010", "geometry": {"type": "Polygon", "coordinates": [[[49.8178365, 40.378075], [49.826905, 40.378075], [49.826905, 40.365825], [49.8178365, 40.365825], [49.8178365, 40.378075]]]}, "properties": {"h3": "kd:0001010"}}, {"type": "Feature", "id": "kd:0001011", "geometry": {"type": "Polygon", "coordinates": [[[49.826905, 40.378075], [49.834072, 40.378075], [49.834072, 40.365825], [49.826905, 40.365825], [49.826905, 40.378075]]]}, "properties": {"h3": "kd:0001011"}}, {"type": "Feature", "id": "kd:0001100", "geometry": {"type": "Polygon", "coordinates": [[[49.8178365, 40.388662], [49.826282, 40.388662], [49.826282, 40.378075], [49.8178365, 40.378075], [49.8178365, 40.388662]]]}, "properties": {"h3": "kd:0001100"}}, {"type": "Feature", "id": "kd:0001101", "geometry": {"type": "Polygon", "coordinates": [[[49.826282, 40.388662], [49.834072, 40.388662], [49.834072, 40.378075], [49.826282, 40.378075], [49.826282, 40.388662]]]}, "properties": {"h3": "kd:0001101"}}, {"type": "Feature", "id": "kd:0001110", "geometry": {"type": "Polygon", "coordinates": [[[49.8178365, 40.400556], [49.825342, 40.400556], [49.825342, 40.388662], [49.8178365, 40.388662], [49.8178365, 40.400556]]]}, "properties": {"h3": "kd:0001110"}}, {"type": "Feature", "id": "kd:0001111", "geometry": {"type": "Polygon", "coordinates": [[[49.825342, 40.400556], [49.834072, 40.400556], [49.834072, 40.388662], [49.825342, 40.388662], [49.825342, 40.400556]]]}, "properties": {"h3": "kd:0001111"}}, {"type": "Feature", "id": "kd:0010000", "geometry": {"type": "Polygon", "coordinates": [[[49.834072, 40.349715], [49.859809, 40.349715], [49.859809, 40.308968], [49.834072, 40.308968], [49.834072, 40.349715]]]}, "properties": {"h3": "kd:0010000"}}, {"type": "Feature", "id": "kd:0010001", "geometry": {"type": "Polygon", "coordinates": [[[49.834072, 40.357236], [49.859809, 40.357236], [49.859809, 40.349715], [49.834072, 40.349715], [49.834072, 40.357236]]]}, "properties": {"h3": "kd:0010001"}}, {"type": "Feature", "id": "kd:0010010", "geometry": {"type": "Polygon", "coordinates": [[[49.834072, 40.365613], [49.846358, 40.365613], [49.846358, 40.357236], [49.834072, 40.357236], [49.834072, 40.365613]]]}, "properties": {"h3": "kd:0010010"}}, {"type": "Feature", "id": "kd:0010011", "geometry": {"type": "Polygon", "coordinates": [[[49.846358, 40.365613], [49.859809, 40.365613], [49.859809, 40.357236], [49.846358, 40.357236], [49.846358, 40.365613]]]}, "properties": {"h3": "kd:0010011"}}, {"type": "Feature", "id": "kd:0010100", "geometry": {"type": "Polygon", "coordinates": [[[49.834072, 40.371328], [49.846956, 40.371328], [49.846956, 40.365613], [49.834072, 40.365613], [49.834072, 40.371328]]]}, "properties": {"h3": "kd:0010100"}}, {"type": "Feature", "id": "kd:0010101", "geometry": {"type": "Polygon", "coordinates": [[[49.834072, 40.376474], [49.846956, 40.376474], [49.846956, 40.371328], [49.834072, 40.371328], [49.834072, 40.376474]]]}, "properties": {"h3": "kd:0010101"}}, {"type": "Feature", "id": "kd:0010110", "geometry": {"type": "Polygon", "coordinates": [[[49.846956, 40.371317], [49.859809, 40.371317], [49.859809, 40.365613], [49.846956, 40.365613], [49.846956, 40.371317]]]}, "properties": {"h3": "kd:0010110"}}, {"type": "Feature", "id": "kd:0010111", "geometry": {"type": "Polygon", "coordinates": [[[49.846956, 40.376474], [49.859809, 40.376474], [49.859809, 40.371317], [49.846956, 40.371317], [49.846956, 40.376474]]]}, "properties": {"h3": "kd:0010111"}}, {"type": "Feature", "id": "kd:0011000", "geometry": {"type": "Polygon", "coordinates": [[[49.834072, 40.38203], [49.847698, 40.38203], [49.847698, 40.376474], [49.834072, 40.376474], [49.834072, 40.38203]]]}, "properties": {"h3": "kd:0011000"}}, {"type": "Feature", "id": "kd:0011001", "geometry": {"type": "Polygon", "coordinates": [[[49.834072, 40.387705], [49.847698, 40.387705], [49.847698, 40.38203], [49.834072, 40.38203], [49.834072, 40.387705]]]}, "properties": {"h3": "kd:0011001"}}, {"type": "Feature", "id": "kd:0011010", "geometry": {"type": "Polygon", "coordinates": [[[49.847698, 40.3816825], [49.859809, 40.3816825], [49.859809, 40.376474], [49.847698, 40.376474], [49.847698, 40.3816825]]]}, "properties": {"h3": "kd:0011010"}}, {"type": "Feature", "id": "kd:0011011", "geometry": {"type": "Polygon", "coordinates": [[[49.847698, 40.387705], [49.859809, 40.387705], [49.859809, 40.3816825], [49.847698, 40.3816825], [49.847698, 40.387705]]]}, "properties": {"h3": "kd:0011011"}}, {"type": "Feature", "id": "kd:0011100", "geometry": {"type": "Polygon", "coordinates": [[[49.834072, 40.393499], [49.848072, 40.393499], [49.848072, 40.387705], [49.834072, 40.387705], [49.834072, 40.393499]]]}, "properties": {"h3": "kd:0011100"}}, {"type": "Feature", "id": "kd:0011101", "geometry": {"type": "Polygon", "coordinates": [[[49.834072, 40.400556], [49.848072, 40.400556], [49.848072, 40.393499], [49.834072, 40.393499], [49.834072, 40.400556]]]}, "properties": {"h3": "kd:0011101"}}, {"type": "Feature", "id": "kd:0011110", "geometry": {"type": "Polygon", "coordinates": [[[49.848072, 40.393653], [49.859809, 40.393653], [49.859809, 40.387705], [49.848072, 40.387705], [49.848072, 40.393653]]]}, "properties": {"h3": "kd:0011110"}}, {"type": "Feature", "id": "kd:0011111", "geometry": {"type": "Polygon", "coordinates": [[[49.848072, 40.400556], [49.859809, 40.400556], [49.859809, 40.393653], [49.848072, 40.393653], [49.848072, 40.400556]]]}, "properties": {"h3": "kd:0011111"}}, {"type": "Feature", "id": "kd:0100000", "geometry": {"type": "Polygon", "coordinates": [[[49.605689000000005, 40.4363815], [49.751649, 40.4363815], [49.751649, 40.400556], [49.605689000000005, 40.400556], [49.605689000000005, 40.4363815]]]}, "properties": {"h3": "kd:0100000"}}, {"type": "Feature", "id": "kd:0100001", "geometry": {"type": "Polygon", "coordinates": [[[49.751649, 40.4363815], [49.776051499999994, 40.4363815], [49.776051499999994, 40.400556], [49.751649, 40.400556], [49.751649, 40.4363815]]]}, "properties": {"h3": "kd:0100001"}}, {"type": "Feature", "id": "kd:0100010", "geometry": {"type": "Polygon", "coordinates": [[[49.776051499999994, 40.413451], [49.798352, 40.413451], [49.798352, 40.400556], [49.776051499999994, 40.400556], [49.776051499999994, 40.413451]]]}, "properties": {"h3": "kd:0100010"}}, {"type": "Feature", "id": "kd:0100011", "geometry": {"type": "Polygon", "coordinates": [[[49.776051499999994, 40.4363815], [49.798352, 40.4363815], [49.798352, 40.413451], [49.776051499999994, 40.413451], [49.776051499999994, 40.4363815]]]}, "properties": {"h3": "kd:0100011"}}, {"type": "Feature", "id": "kd:0100100", "geometry": {"type": "Polygon", "coordinates": [[[49.798352, 40.4114915], [49.809326, 40.4114915], [49.809326, 40.400556], [49.798352, 40.400556], [49.798352, 40.4114915]]]}, "properties": {"h3": "kd:0100100"}}, {"type": "Feature", "id": "kd:0100101", "geometry": {"type": "Polygon", "coordinates": [[[49.809326, 40.4114915], [49.816835999999995, 40.4114915], [49.816835999999995, 40.400556], [49.809326, 40.400556], [49.809326, 40.4114915]]]}, "properties": {"h3": "kd:0100101"}}, {"type": "Feature", "id": "kd:0100110", "geometry": {"type": "Polygon", "coordinates": [[[49.798352, 40.418649], [49.816835999999995, 40.418649], [49.816835999999995, 40.4114915], [49.798352, 40.4114915], [49.798352, 40.418649]]]}, "properties": {"h3": "kd:0100110"}}, {"type": "Feature", "id": "kd:0100111", "geometry": {"type": "Polygon", "coordinates": [[[49.798352, 40.4363815], [49.816835999999995, 40.4363815], [49.816835999999995, 40.418649], [49.798352, 40.418649], [49.798352, 40.4363815]]]}, "properties": {"h3": "kd:0100111"}}, {"type": "Feature", "id": "kd:0101000", "geometry": {"type": "Polygon", "coordinates": [[[49.816835999999995, 40.4113], [49.825248, 40.4113], [49.825248, 40.400556], [49.816835999999995, 40.400556], [49.816835999999995, 40.4113]]]}, "properties": {"h3": "kd:0101000"}}, {"type": "Feature", "id": "kd:0101001", "geometry": {"type": "Polygon", "coordinates": [[[49.825248, 40.4113], [49.837081, 40.4113], [49.837081, 40.400556], [49.825248, 40.400556], [49.825248, 40.4113]]]}, "properties": {"h3": "kd:0101001"}}, {"type": "Feature", "id": "kd:0101010", "geometry": {"type": "Polygon", "coordinates": [[[49.837081, 40.4113], [49.850433, 40.4113], [49.850433, 40.400556], [49.837081, 40.400556], [49.837081, 40.4113]]]}, "properties": {"h3": "kd:0101010"}}, {"type": "Feature", "id": "kd:0101011", "geometry": {"type": "Polygon", "coordinates": [[[49.850433, 40.4113], [49.859809, 40.4113], [49.859809, 40.400556], [49.850433, 40.400556], [49.850433, 40.4113]]]}, "properties": {"h3": "kd:0101011"}}, {"type": "Feature", "id": "kd:0101100", "geometry": {"type": "Polygon", "coordinates": [[[49.816835999999995, 40.418519], [49.83789, 40.418519], [49.83789, 40.4113], [49.816835999999995, 40.4113], [49.816835999999995, 40.418519]]]}, "properties": {"h3": "kd:0101100"}}, {"type": "Feature", "id": "kd:0101101", "geometry": {"type": "Polygon", "coordinates": [[[49.816835999999995, 40.4363815], [49.83789, 40.4363815], [49.83789, 40.418519], [49.816835999999995, 40.418519], [49.816835999999995, 40.4363815]]]}, "properties": {"h3": "kd:0101101"}}, {"type": "Feature", "id": "kd:0101110", "geometry": {"type": "Polygon", "coordinates": [[[49.83789, 40.418835], [49.859809, 40.418835], [49.859809, 40.4113], [49.83789, 40.4113], [49.83789, 40.418835]]]}, "properties": {"h3": "kd:0101110"}}, {"type": "Feature", "id": "kd:0101111", "geometry": {"type": "Polygon", "coordinates": [[[49.83789, 40.4363815], [49.859809, 40.4363815], [49.859809, 40.418835], [49.83789, 40.418835], [49.83789, 40.4363815]]]}, "properties": {"h3": "kd:0101111"}}, {"type": "Feature", "id": "kd:0110000", "geometry": {"type": "Polygon", "coordinates": [[[49.605689000000005, 40.4709535], [49.732669, 40.4709535], [49.732669, 40.4363815], [49.605689000000005, 40.4363815], [49.605689000000005, 40.4709535]]]}, "properties": {"h3": "kd:0110000"}}, {"type": "Feature", "id": "kd:0110001", "geometry": {"type": "Polygon", "coordinates": [[[49.732669, 40.4709535], [49.742455, 40.4709535], [49.742455, 40.4363815], [49.732669, 40.4363815], [49.732669, 40.4709535]]]}, "properties": {"h3": "kd:0110001"}}, {"type": "Feature", "id": "kd:0110010", "geometry": {"type": "Polygon", "coordinates": [[[49.742455, 40.453232], [49.756992999999994, 40.453232], [49.756992999999994, 40.4363815], [49.742455, 40.4363815], [49.742455, 40.453232]]]}, "properties": {"h3": "kd:0110010"}}, {"type": "Feature", "id": "kd:0110011", "geometry": {"type": "Polygon", "coordinates": [[[49.742455, 40.4709535], [49.756992999999994, 40.4709535], [49.756992999999994, 40.453232], [49.742455, 40.453232], [49.742455, 40.4709535]]]}, "properties": {"h3": "kd:0110011"}}, {"type": "Feature", "id": "kd:0110100", "geometry": {"type": "Polygon", "coordinates": [[[49.756992999999994, 40.451843], [49.773033999999996, 40.451843], [49.773033999999996, 40.4363815], [49.756992999999994, 40.4363815], [49.756992999999994, 40.451843]]]}, "properties": {"h3": "kd:0110100"}}, {"type": "Feature", "id": "kd:0110101", "geometry": {"type": "Polygon", "coordinates": [[[49.756992999999994, 40.4709535], [49.773033999999996, 40.4709535], [49.773033999999996, 40.451843], [49.756992999999994, 40.451843], [49.756992999999994, 40.4709535]]]}, "properties": {"h3": "kd:0110101"}}, {"type": "Feature", "id": "kd:0110110", "geometry": {"type": "Polygon", "coordinates": [[[49.773033999999996, 40.4709535], [49.78753, 40.4709535], [49.78753, 40.4363815], [49.773033999999996, 40.4363815], [49.773033999999996, 40.4709535]]]}, "properties": {"h3": "kd:0110110"}}, {"type": "Feature", "id": "kd:0110111", "geometry": {"type": "Polygon", "coordinates": [[[49.78753, 40.4709535], [49.859809, 40.4709535], [49.859809, 40.4363815], [49.78753, 40.4363815], [49.78753, 40.4709535]]]}, "properties": {"h3": "kd:0110111"}}, {"type": "Feature", "id": "kd:0111000", "geometry": {"type": "Polygon", "coordinates": [[[49.605689000000005, 40.58016], [49.672101, 40.58016], [49.672101, 40.4709535], [49.605689000000005, 40.4709535], [49.605689000000005, 40.58016]]]}, "properties": {"h3": "kd:0111000"}}, {"type": "Feature", "id": "kd:0111001", "geometry": {"type": "Polygon", "coordinates": [[[49.605689000000005, 40.5918145], [49.672101, 40.5918145], [49.672101, 40.58016], [49.605689000000005, 40.58016], [49.605689000000005, 40.5918145]]]}, "properties": {"h3": "kd:0111001"}}, {"type": "Feature", "id": "kd:0111010", "geometry": {"type": "Polygon", "coordinates": [[[49.605689000000005, 40.638701999999995], [49.657253, 40.638701999999995], [49.657253, 40.5918145], [49.605689000000005, 40.5918145], [49.605689000000005, 40.638701999999995]]]}, "properties": {"h3": "kd:0111010"}}, {"type": "Feature", "id": "kd:0111011", "geometry": {"type": "Polygon", "coordinates": [[[49.657253, 40.638701999999995], [49.672101, 40.638701999999995], [49.672101, 40.5918145], [49.657253, 40.5918145], [49.657253, 40.638701999999995]]]}, "properties": {"h3": "kd:0111011"}}, {"type": "Feature", "id": "kd:0111100", "geometry": {"type": "Polygon", "coordinates": [[[49.672101, 40.585618999999994], [49.698343, 40.585618999999994], [49.698343, 40.4709535], [49.672101, 40.4709535], [49.672101, 40.585618999999994]]]}, "properties": {"h3": "kd:0111100"}}, {"type": "Feature", "id": "kd:0111101", "geometry": {"type": "Polygon", "coordinates": [[[49.859809, 40.4709535], [49.698343, 40.4709535], [49.698343, 40.585618999999994], [49.82190500000004, 40.585618999999994], [49.85, 40.58], [49.859809, 40.5780382], [49.859809, 40.4709535]]]}, "properties": {"h3": "kd:0111101"}}, {"type": "Feature", "id": "kd:0111110", "geometry": {"type": "Polygon", "coordinates": [[[49.672101, 40.638701999999995], [49.685714, 40.638701999999995], [49.685714, 40.585618999999994], [49.672101, 40.585618999999994], [49.672101, 40.638701999999995]]]}, "properties": {"h3": "kd:0111110"}}, {"type": "Feature", "id": "kd:1000000", "geometry": {"type": "Polygon", "coordinates": [[[49.859809, 40.352483], [49.901695, 40.352483], [49.901695, 40.308968], [49.859809, 40.308968], [49.859809, 40.352483]]]}, "properties": {"h3": "kd:1000000"}}, {"type": "Feature", "id": "kd:1000001", "geometry": {"type": "Polygon", "coordinates": [[[49.859809, 40.359178], [49.901695, 40.359178], [49.901695, 40.352483], [49.859809, 40.352483], [49.859809, 40.359178]]]}, "properties": {"h3": "kd:1000001"}}, {"type": "Feature", "id": "kd:1000010", "geometry": {"type": "Polygon", "coordinates": [[[49.859809, 40.367675], [49.873957, 40.367675], [49.873957, 40.359178], [49.859809, 40.359178], [49.859809, 40.367675]]]}, "properties": {"h3": "kd:1000010"}}, {"type": "Feature", "id": "kd:1000011", "geometry": {"type": "Polygon", "coordinates": [[[49.873957, 40.367675], [49.901695, 40.367675], [49.901695, 40.359178], [49.873957, 40.359178], [49.873957, 40.367675]]]}, "properties": {"h3": "kd:1000011"}}, {"type": "Feature", "id": "kd:1000100", "geometry": {"type": "Polygon", "coordinates": [[[49.859809, 40.373979], [49.8735835, 40.373979], [49.8735835, 40.367675], [49.859809, 40.367675], [49.859809, 40.373979]]]}, "properties": {"h3": "kd:1000100"}}, {"type": "Feature", "id": "kd:1000101", "geometry": {"type": "Polygon", "coordinates": [[[49.859809, 40.3801045], [49.8735835, 40.3801045], [49.8735835, 40.373979], [49.859809, 40.373979], [49.859809, 40.3801045]]]}, "properties": {"h3": "kd:1000101"}}, {"type": "Feature", "id": "kd:1000110", "geometry": {"type": "Polygon", "coordinates": [[[49.8735835, 40.3801045], [49.883965, 40.3801045], [49.883965, 40.367675], [49.8735835, 40.367675], [49.8735835, 40.3801045]]]}, "properties": {"h3": "kd:1000110"}}, {"type": "Feature", "id": "kd:1000111", "geometry": {"type": "Polygon", "coordinates": [[[49.883965, 40.3801045], [49.901695, 40.3801045], [49.901695, 40.367675], [49.883965, 40.367675], [49.883965, 40.3801045]]]}, "properties": {"h3": "kd:1000111"}}, {"type": "Feature", "id": "kd:1001000", "geometry": {"type": "Polygon", "coordinates": [[[49.859809, 40.389999], [49.867529, 40.389999], [49.867529, 40.3801045], [49.859809, 40.3801045], [49.859809, 40.389999]]]}, "properties": {"h3": "kd:1001000"}}, {"type": "Feature", "id": "kd:1001001", "geometry": {"type": "Polygon", "coordinates": [[[49.867529, 40.389999], [49.877527, 40.389999], [49.877527, 40.3801045], [49.867529, 40.3801045], [49.867529, 40.389999]]]}, "properties": {"h3": "kd:1001001"}}, {"type": "Feature", "id": "kd:1001010", "geometry": {"type": "Polygon", "coordinates": [[[49.859809, 40.4001145], [49.868235, 40.4001145], [49.868235, 40.389999], [49.859809, 40.389999], [49.859809, 40.4001145]]]}, "properties": {"h3": "kd:1001010"}}, {"type": "Feature", "id": "kd:1001011", "geometry": {"type": "Polygon", "coordinates": [[[49.868235, 40.4001145], [49.877527, 40.4001145], [49.877527, 40.389999], [49.868235, 40.389999], [49.868235, 40.4001145]]]}, "properties": {"h3": "kd:1001011"}}, {"type": "Feature", "id": "kd:1001100", "geometry": {"type": "Polygon", "coordinates": [[[49.877527, 40.390834], [49.889433, 40.390834], [49.889433, 40.3801045], [49.877527, 40.3801045], [49.877527, 40.390834]]]}, "properties": {"h3": "kd:1001100"}}, {"type": "Feature", "id": "kd:1001101", "geometry": {"type": "Polygon", "coordinates": [[[49.889433, 40.390834], [49.901695, 40.390834], [49.901695, 40.3801045], [49.889433, 40.3801045], [49.889433, 40.390834]]]}, "properties": {"h3": "kd:1001101"}}, {"type": "Feature", "id": "kd:1001110", "geometry": {"type": "Polygon", "coordinates": [[[49.877527, 40.4001145], [49.888767, 40.4001145], [49.888767, 40.390834], [49.877527, 40.390834], [49.877527, 40.4001145]]]}, "properties": {"h3": "kd:1001110"}}, {"type": "Feature", "id": "kd:1001111", "geometry": {"type": "Polygon", "coordinates": [[[49.888767, 40.4001145], [49.901695, 40.4001145], [49.901695, 40.390834], [49.888767, 40.390834], [49.888767, 40.4001145]]]}, "properties": {"h3": "kd:1001111"}}, {"type": "Feature", "id": "kd:1010000", "geometry": {"type": "Polygon", "coordinates": [[[49.901695, 40.359322], [49.939468, 40.359322], [49.939468, 40.308968], [49.901695, 40.308968], [49.901695, 40.359322]]]}, "properties": {"h3": "kd:1010000"}}, {"type": "Feature", "id": "kd:1010001", "geometry": {"type": "Polygon", "coordinates": [[[49.901695, 40.3705915], [49.939468, 40.3705915], [49.939468, 40.359322], [49.901695, 40.359322], [49.901695, 40.3705915]]]}, "properties": {"h3": "kd:1010001"}}, {"type": "Feature", "id": "kd:1010010", "geometry": {"type": "Polygon", "coordinates": [[[49.901695, 40.382787], [49.920709, 40.382787], [49.920709, 40.3705915], [49.901695, 40.3705915], [49.901695, 40.382787]]]}, "properties": {"h3": "kd:1010010"}}, {"type": "Feature", "id": "kd:1010011", "geometry": {"type": "Polygon", "coordinates": [[[49.920709, 40.382787], [49.939468, 40.382787], [49.939468, 40.3705915], [49.920709, 40.3705915], [49.920709, 40.382787]]]}, "properties": {"h3": "kd:1010011"}}, {"type": "Feature", "id": "kd:1010100", "geometry": {"type": "Polygon", "coordinates": [[[49.901695, 40.390718], [49.92079, 40.390718], [49.92079, 40.382787], [49.901695, 40.382787], [49.901695, 40.390718]]]}, "properties": {"h3": "kd:1010100"}}, {"type": "Feature", "id": "kd:1010101", "geometry": {"type": "Polygon", "coordinates": [[[49.901695, 40.4001145], [49.92079, 40.4001145], [49.92079, 40.390718], [49.901695, 40.390718], [49.901695, 40.4001145]]]}, "properties": {"h3": "kd:1010101"}}, {"type": "Feature", "id": "kd:1010110", "geometry": {"type": "Polygon", "coordinates": [[[49.92079, 40.392147], [49.939468, 40.392147], [49.939468, 40.382787], [49.92079, 40.382787], [49.92079, 40.392147]]]}, "properties": {"h3": "kd:1010110"}}, {"type": "Feature", "id": "kd:1010111", "geometry": {"type": "Polygon", "coordinates": [[[49.92079, 40.4001145], [49.939468, 40.4001145], [49.939468, 40.392147], [49.92079, 40.392147], [49.92079, 40.4001145]]]}, "properties": {"h3": "kd:1010111"}}, {"type": "Feature", "id": "kd:1011000", "geometry": {"type": "Polygon", "coordinates": [[[49.939468, 40.369562], [49.963567, 40.369562], [49.963567, 40.308968], [49.939468, 40.308968], [49.939468, 40.369562]]]}, "properties": {"h3": "kd:1011000"}}, {"type": "Feature", "id": "kd:1011001", "geometry": {"type": "Polygon", "coordinates": [[[49.939468, 40.381442500000006], [49.963567, 40.381442500000006], [49.963567, 40.369562], [49.939468, 40.369562], [49.939468, 40.381442500000006]]]}, "properties": {"h3": "kd:1011001"}}, {"type": "Feature", "id": "kd:1011010", "geometry": {"type": "Polygon", "coordinates": [[[49.939468, 40.39124], [49.963567, 40.39124], [49.963567, 40.381442500000006], [49.939468, 40.381442500000006], [49.939468, 40.39124]]]}, "properties": {"h3": "kd:1011010"}}, {"type": "Feature", "id": "kd:1011011", "geometry": {"type": "Polygon", "coordinates": [[[49.939468, 40.4001145], [49.963567, 40.4001145], [49.963567, 40.39124], [49.939468, 40.39124], [49.939468, 40.4001145]]]}, "properties": {"h3": "kd:1011011"}}, {"type": "Feature", "id": "kd:1011100", "geometry": {"type": "Polygon", "coordinates": [[[49.963567, 40.382317], [49.983236, 40.382317], [49.983236, 40.308968], [49.963567, 40.308968], [49.963567, 40.382317]]]}, "properties": {"h3": "kd:1011100"}}, {"type": "Feature", "id": "kd:1011101", "geometry": {"type": "Polygon", "coordinates": [[[49.963567, 40.4001145], [49.983236, 40.4001145], [49.983236, 40.382317], [49.963567, 40.382317], [49.963567, 40.4001145]]]}, "properties": {"h3": "kd:1011101"}}, {"type": "Feature", "id": "kd:1011110", "geometry": {"type": "Polygon", "coordinates": [[[49.983236, 40.308968], [49.983236, 40.4001145], [50.00766, 40.4001145], [50.00766, 40.311915], [50.0, 40.31], [49.99483999999999, 40.308968], [49.983236, 40.308968]]]}, "properties": {"h3": "kd:1011110"}}, {"type": "Feature", "id": "kd:1100000", "geometry": {"type": "Polygon", "coordinates": [[[49.859809, 40.40684], [49.878309, 40.40684], [49.878309, 40.4001145], [49.859809, 40.4001145], [49.859809, 40.40684]]]}, "properties": {"h3": "kd:1100000"}}, {"type": "Feature", "id": "kd:1100001", "geometry": {"type": "Polygon", "coordinates": [[[49.859809, 40.415346], [49.878309, 40.415346], [49.878309, 40.40684], [49.859809, 40.40684], [49.859809, 40.415346]]]}, "properties": {"h3": "kd:1100001"}}, {"type": "Feature", "id": "kd:1100010", "geometry": {"type": "Polygon", "coordinates": [[[49.878309, 40.407369], [49.896045, 40.407369], [49.896045, 40.4001145], [49.878309, 40.4001145], [49.878309, 40.407369]]]}, "properties": {"h3": "kd:1100010"}}, {"type": "Feature", "id": "kd:1100011", "geometry": {"type": "Polygon", "coordinates": [[[49.878309, 40.415346], [49.896045, 40.415346], [49.896045, 40.407369], [49.878309, 40.407369], [49.878309, 40.415346]]]}, "properties": {"h3": "kd:1100011"}}, {"type": "Feature", "id": "kd:1100100", "geometry": {"type": "Polygon", "coordinates": [[[49.896045, 40.406369], [49.912575000000004, 40.406369], [49.912575000000004, 40.4001145], [49.896045, 40.4001145], [49.896045, 40.406369]]]}, "properties": {"h3": "kd:1100100"}}, {"type": "Feature", "id": "kd:1100101", "geometry": {"type": "Polygon", "coordinates": [[[49.896045, 40.415346], [49.912575000000004, 40.415346], [49.912575000000004, 40.406369], [49.896045, 40.406369], [49.896045, 40.415346]]]}, "properties": {"h3": "kd:1100101"}}, {"type": "Feature", "id": "kd:1100110", "geometry": {"type": "Polygon", "coordinates": [[[49.912575000000004, 40.407123], [49.930896, 40.407123], [49.930896, 40.4001145], [49.912575000000004, 40.4001145], [49.912575000000004, 40.407123]]]}, "properties": {"h3": "kd:1100110"}}, {"type": "Feature", "id": "kd:1100111", "geometry": {"type": "Polygon", "coordinates": [[[49.912575000000004, 40.415346], [49.930896, 40.415346], [49.930896, 40.407123], [49.912575000000004, 40.407123], [49.912575000000004, 40.415346]]]}, "properties": {"h3": "kd:1100111"}}, {"type": "Feature", "id": "kd:1101000", "geometry": {"type": "Polygon", "coordinates": [[[49.859809, 40.4269], [49.87818, 40.4269], [49.87818, 40.415346], [49.859809, 40.415346], [49.859809, 40.4269]]]}, "properties": {"h3": "kd:1101000"}}, {"type": "Feature", "id": "kd:1101001", "geometry": {"type": "Polygon", "coordinates": [[[49.87818, 40.4269], [49.893817999999996, 40.4269], [49.893817999999996, 40.415346], [49.87818, 40.415346], [49.87818, 40.4269]]]}, "properties": {"h3": "kd:1101001"}}, {"type": "Feature", "id": "kd:1101010", "geometry": {"type": "Polygon", "coordinates": [[[49.893817999999996, 40.4269], [49.909878, 40.4269], [49.909878, 40.415346], [49.893817999999996, 40.415346], [49.893817999999996, 40.4269]]]}, "properties": {"h3": "kd:1101010"}}, {"type": "Feature", "id": "kd:1101011", "geometry": {"type": "Polygon", "coordinates": [[[49.909878, 40.4269], [49.930896, 40.4269], [49.930896, 40.415346], [49.909878, 40.415346], [49.909878, 40.4269]]]}, "properties": {"h3": "kd:1101011"}}, {"type": "Feature", "id": "kd:1101100", "geometry": {"type": "Polygon", "coordinates": [[[49.859809, 40.435376500000004], [49.892734, 40.435376500000004], [49.892734, 40.4269], [49.859809, 40.4269], [49.859809, 40.435376500000004]]]}, "properties": {"h3": "kd:1101100"}}, {"type": "Feature", "id": "kd:1101101", "geometry": {"type": "Polygon", "coordinates": [[[49.892734, 40.435376500000004], [49.930896, 40.435376500000004], [49.930896, 40.4269], [49.892734, 40.4269], [49.892734, 40.435376500000004]]]}, "properties": {"h3": "kd:1101101"}}, {"type": "Feature", "id": "kd:1101110", "geometry": {"type": "Polygon", "coordinates": [[[49.859809, 40.442775], [49.930896, 40.442775], [49.930896, 40.435376500000004], [49.859809, 40.435376500000004], [49.859809, 40.442775]]]}, "properties": {"h3": "kd:1101110"}}, {"type": "Feature", "id": "kd:1101111", "geometry": {"type": "Polygon", "coordinates": [[[49.930896, 40.442775], [49.859809, 40.442775], [49.859809, 40.5780382], [49.9, 40.57], [49.930896, 40.57], [49.930896, 40.442775]]]}, "properties": {"h3": "kd:1101111"}}, {"type": "Feature", "id": "kd:1110000", "geometry": {"type": "Polygon", "coordinates": [[[49.930896, 40.413382999999996], [49.945975, 40.413382999999996], [49.945975, 40.4001145], [49.930896, 40.4001145], [49.930896, 40.413382999999996]]]}, "properties": {"h3": "kd:1110000"}}, {"type": "Feature", "id": "kd:1110001", "geometry": {"type": "Polygon", "coordinates": [[[49.945975, 40.413382999999996], [49.96822, 40.413382999999996], [49.96822, 40.4001145], [49.945975, 40.4001145], [49.945975, 40.413382999999996]]]}, "properties": {"h3": "kd:1110001"}}, {"type": "Feature", "id": "kd:1110010", "geometry": {"type": "Polygon", "coordinates": [[[49.930896, 40.4324], [49.94578, 40.4324], [49.94578, 40.413382999999996], [49.930896, 40.413382999999996], [49.930896, 40.4324]]]}, "properties": {"h3": "kd:1110010"}}, {"type": "Feature", "id": "kd:1110011", "geometry": {"type": "Polygon", "coordinates": [[[49.94578, 40.4324], [49.96822, 40.4324], [49.96822, 40.413382999999996], [49.94578, 40.413382999999996], [49.94578, 40.4324]]]}, "properties": {"h3": "kd:1110011"}}, {"type": "Feature", "id": "kd:1110100", "geometry": {"type": "Polygon", "coordinates": [[[49.96822, 40.413182], [50.0016625, 40.413182], [50.0016625, 40.4001145], [49.96822, 40.4001145], [49.96822, 40.413182]]]}, "properties": {"h3": "kd:1110100"}}, {"type": "Feature", "id": "kd:1110101", "geometry": {"type": "Polygon", "coordinates": [[[49.96822, 40.4324], [50.0016625, 40.4324], [50.0016625, 40.413182], [49.96822, 40.413182], [49.96822, 40.4324]]]}, "properties": {"h3": "kd:1110101"}}, {"type": "Feature", "id": "kd:1110110", "geometry": {"type": "Polygon", "coordinates": [[[50.0016625, 40.4324], [50.024296, 40.4324], [50.024296, 40.4001145], [50.0016625, 40.4001145], [50.0016625, 40.4324]]]}, "properties": {"h3": "kd:1110110"}}, {"type": "Feature", "id": "kd:1110111", "geometry": {"type": "Polygon", "coordinates": [[[50.024296, 40.4001145], [50.024296, 40.4324], [50.132400000000004, 40.4324], [50.13, 40.43], [50.12, 40.42], [50.11, 40.41], [50.11, 40.4001145], [50.024296, 40.4001145]]]}, "properties": {"h3": "kd:1110111"}}, {"type": "Feature", "id": "kd:1111000", "geometry": {"type": "Polygon", "coordinates": [[[49.930896, 40.4499725], [49.983872, 40.4499725], [49.983872, 40.4324], [49.930896, 40.4324], [49.930896, 40.4499725]]]}, "properties": {"h3": "kd:1111000"}}, {"type": "Feature", "id": "kd:1111001", "geometry": {"type": "Polygon", "coordinates": [[[49.983872, 40.4499725], [50.100041, 40.4499725], [50.100041, 40.4324], [49.983872, 40.4324], [49.983872, 40.4499725]]]}, "properties": {"h3": "kd:1111001"}}, {"type": "Feature", "id": "kd:1111010", "geometry": {"type": "Polygon", "coordinates": [[[49.930896, 40.475756], [50.100041, 40.475756], [50.100041, 40.4499725], [49.930896, 40.4499725], [49.930896, 40.475756]]]}, "properties": {"h3": "kd:1111010"}}, {"type": "Feature", "id": "kd:1111100", "geometry": {"type": "Polygon", "coordinates": [[[50.100041, 40.495194], [50.127312, 40.495194], [50.127312, 40.4324], [50.100041, 40.4324], [50.100041, 40.495194]]]}, "properties": {"h3": "kd:1111100"}}, {"type": "Feature", "id": "kd:1111101", "geometry": {"type": "Polygon", "coordinates": [[[50.127312, 40.4324], [50.127312, 40.495194], [50.202768999999996, 40.495194], [50.202768999999996, 40.476384499999995], [50.19, 40.47], [50.17, 40.46], [50.16, 40.45], [50.14, 40.44], [50.132400000000004, 40.4324], [50.127312, 40.4324]]]}, "properties": {"h3": "kd:1111101"}}, {"type": "Feature", "id": "kd:1111110", "geometry": {"type": "Polygon", "coordinates": [[[50.100041, 40.505531500000004], [50.202768999999996, 40.505531500000004], [50.202768999999996, 40.495194], [50.100041, 40.495194], [50.100041, 40.505531500000004]]]}, "properties": {"h3": "kd:1111110"}}]}